<?xml version="1.0" encoding="UTF-8"?>
<gpx creator="fabulator:gpx-builder" version="1.1" xmlns="http://www.topografix.com/GPX/1/1" xmlns:xsi="http://www.w3.org/2001/XMLSchema-instance" xsi:schemaLocation="http://www.topografix.com/GPX/1/1 https://www.topografix.com/GPX/1/1/gpx.xsd">
  <metadata>
    <name>Fra Glitterheim til Spiterstulen  via Skautflye</name>
    <copyright author="UT.no">
      <year>2026</year>
      <license>http://creativecommons.org/licenses/by-nc/4.0/deed.no</license>
    </copyright>
    <link href="https://ut.no"></link>
  </metadata>
  <trk>
    <trkseg>
      <trkpt lat="61.6228946707447" lon="8.63288760293259">
        <ele>1386</ele>
        <time>2026-09-16T09:42:40.737Z</time>
      </trkpt>
      <trkpt lat="61.6221013790745" lon="8.63113996056257">
        <ele>1386</ele>
        <time>2026-09-16T09:42:40.737Z</time>
      </trkpt>
      <trkpt lat="61.6217944592599" lon="8.63016250320196">
        <ele>1388</ele>
        <time>2026-09-16T09:42:40.737Z</time>
      </trkpt>
      <trkpt lat="61.6215220273973" lon="8.62953748541542">
        <ele>1387</ele>
        <time>2026-09-16T09:42:40.737Z</time>
      </trkpt>
      <trkpt lat="61.6212975493746" lon="8.62916750291666">
        <ele>1387</ele>
        <time>2026-09-16T09:42:40.737Z</time>
      </trkpt>
      <trkpt lat="61.6210819920345" lon="8.62879568453288">
        <ele>1388</ele>
        <time>2026-09-16T09:42:40.737Z</time>
      </trkpt>
      <trkpt lat="61.6206570104043" lon="8.62818325482954">
        <ele>1389</ele>
        <time>2026-09-16T09:42:40.738Z</time>
      </trkpt>
      <trkpt lat="61.6205072522858" lon="8.62806278395311">
        <ele>1388</ele>
        <time>2026-09-16T09:42:40.738Z</time>
      </trkpt>
      <trkpt lat="61.620413653415" lon="8.62798749022933">
        <ele>1388</ele>
        <time>2026-09-16T09:42:40.738Z</time>
      </trkpt>
      <trkpt lat="61.6197714538654" lon="8.62793081555435">
        <ele>1385</ele>
        <time>2026-09-16T09:42:40.738Z</time>
      </trkpt>
      <trkpt lat="61.6195814704784" lon="8.6279132610482">
        <ele>1385</ele>
        <time>2026-09-16T09:42:40.738Z</time>
      </trkpt>
      <trkpt lat="61.6191712325692" lon="8.62780871348826">
        <ele>1383</ele>
        <time>2026-09-16T09:42:40.738Z</time>
      </trkpt>
      <trkpt lat="61.6184684905984" lon="8.62761316863113">
        <ele>1381</ele>
        <time>2026-09-16T09:42:40.738Z</time>
      </trkpt>
      <trkpt lat="61.6178684244069" lon="8.62730183554709">
        <ele>1380</ele>
        <time>2026-09-16T09:42:40.738Z</time>
      </trkpt>
      <trkpt lat="61.6178595028123" lon="8.62730367695138">
        <ele>1380</ele>
        <time>2026-09-16T09:42:40.738Z</time>
      </trkpt>
      <trkpt lat="61.6173441137588" lon="8.62706948034215">
        <ele>1377</ele>
        <time>2026-09-16T09:42:40.738Z</time>
      </trkpt>
      <trkpt lat="61.6171105538112" lon="8.62689064202603">
        <ele>1379</ele>
        <time>2026-09-16T09:42:40.738Z</time>
      </trkpt>
      <trkpt lat="61.6169144334369" lon="8.62674191900574">
        <ele>1381</ele>
        <time>2026-09-16T09:42:40.738Z</time>
      </trkpt>
      <trkpt lat="61.6166121306419" lon="8.6266340351251">
        <ele>1382</ele>
        <time>2026-09-16T09:42:40.738Z</time>
      </trkpt>
      <trkpt lat="61.6161975083322" lon="8.62643581776755">
        <ele>1383</ele>
        <time>2026-09-16T09:42:40.738Z</time>
      </trkpt>
      <trkpt lat="61.6156749500763" lon="8.62624096535793">
        <ele>1383</ele>
        <time>2026-09-16T09:42:40.738Z</time>
      </trkpt>
      <trkpt lat="61.6150979853628" lon="8.62603843012625">
        <ele>1383</ele>
        <time>2026-09-16T09:42:40.738Z</time>
      </trkpt>
      <trkpt lat="61.614678824878" lon="8.6259357606942">
        <ele>1383</ele>
        <time>2026-09-16T09:42:40.738Z</time>
      </trkpt>
      <trkpt lat="61.6142748770287" lon="8.62577319745707">
        <ele>1383</ele>
        <time>2026-09-16T09:42:40.738Z</time>
      </trkpt>
      <trkpt lat="61.6139165667415" lon="8.62543095120971">
        <ele>1384</ele>
        <time>2026-09-16T09:42:40.738Z</time>
      </trkpt>
      <trkpt lat="61.6137339037304" lon="8.6251848815099">
        <ele>1385</ele>
        <time>2026-09-16T09:42:40.738Z</time>
      </trkpt>
      <trkpt lat="61.6131038643019" lon="8.62442579246031">
        <ele>1387</ele>
        <time>2026-09-16T09:42:40.738Z</time>
      </trkpt>
      <trkpt lat="61.6127392605696" lon="8.62414162629271">
        <ele>1390</ele>
        <time>2026-09-16T09:42:40.738Z</time>
      </trkpt>
      <trkpt lat="61.6124059570989" lon="8.62375641612223">
        <ele>1390</ele>
        <time>2026-09-16T09:42:40.738Z</time>
      </trkpt>
      <trkpt lat="61.6122383526488" lon="8.62363968073572">
        <ele>1390</ele>
        <time>2026-09-16T09:42:40.738Z</time>
      </trkpt>
      <trkpt lat="61.6120145875439" lon="8.62347779002513">
        <ele>1390</ele>
        <time>2026-09-16T09:42:40.738Z</time>
      </trkpt>
      <trkpt lat="61.6116303847207" lon="8.62315985656635">
        <ele>1391</ele>
        <time>2026-09-16T09:42:40.738Z</time>
      </trkpt>
      <trkpt lat="61.6114806228937" lon="8.62303944284098">
        <ele>1391</ele>
        <time>2026-09-16T09:42:40.738Z</time>
      </trkpt>
      <trkpt lat="61.6112390141264" lon="8.62288124449378">
        <ele>1392</ele>
        <time>2026-09-16T09:42:40.738Z</time>
      </trkpt>
      <trkpt lat="61.61062036787" lon="8.62236582121763">
        <ele>1396</ele>
        <time>2026-09-16T09:42:40.738Z</time>
      </trkpt>
      <trkpt lat="61.6105552854515" lon="8.62232251103791">
        <ele>1397</ele>
        <time>2026-09-16T09:42:40.738Z</time>
      </trkpt>
      <trkpt lat="61.6102120301572" lon="8.62210964738774">
        <ele>1399</ele>
        <time>2026-09-16T09:42:40.738Z</time>
      </trkpt>
      <trkpt lat="61.6097529431648" lon="8.62173154790362">
        <ele>1400</ele>
        <time>2026-09-16T09:42:40.738Z</time>
      </trkpt>
      <trkpt lat="61.6092119544162" lon="8.62114338499321">
        <ele>1405</ele>
        <time>2026-09-16T09:42:40.738Z</time>
      </trkpt>
      <trkpt lat="61.608980289723" lon="8.62081291799089">
        <ele>1408</ele>
        <time>2026-09-16T09:42:40.738Z</time>
      </trkpt>
      <trkpt lat="61.6087933780278" lon="8.62028405777259">
        <ele>1411</ele>
        <time>2026-09-16T09:42:40.738Z</time>
      </trkpt>
      <trkpt lat="61.6085609793863" lon="8.61974568426769">
        <ele>1413</ele>
        <time>2026-09-16T09:42:40.738Z</time>
      </trkpt>
      <trkpt lat="61.6083848851802" lon="8.61906328042805">
        <ele>1417</ele>
        <time>2026-09-16T09:42:40.738Z</time>
      </trkpt>
      <trkpt lat="61.6083537322826" lon="8.6189751401014">
        <ele>1417</ele>
        <time>2026-09-16T09:42:40.738Z</time>
      </trkpt>
      <trkpt lat="61.6081287812735" lon="8.61801911246746">
        <ele>1422</ele>
        <time>2026-09-16T09:42:40.738Z</time>
      </trkpt>
      <trkpt lat="61.6077079766367" lon="8.61653612409416">
        <ele>1432</ele>
        <time>2026-09-16T09:42:40.738Z</time>
      </trkpt>
      <trkpt lat="61.607514761887" lon="8.61606535569001">
        <ele>1437</ele>
        <time>2026-09-16T09:42:40.738Z</time>
      </trkpt>
      <trkpt lat="61.6074631299592" lon="8.6159247089292">
        <ele>1438</ele>
        <time>2026-09-16T09:42:40.738Z</time>
      </trkpt>
      <trkpt lat="61.6068849543821" lon="8.6149282551552">
        <ele>1444</ele>
        <time>2026-09-16T09:42:40.738Z</time>
      </trkpt>
      <trkpt lat="61.606500269575" lon="8.61402423461776">
        <ele>1450</ele>
        <time>2026-09-16T09:42:40.738Z</time>
      </trkpt>
      <trkpt lat="61.6061819509735" lon="8.61261474937793">
        <ele>1454</ele>
        <time>2026-09-16T09:42:40.738Z</time>
      </trkpt>
      <trkpt lat="61.6060273143814" lon="8.61181451183985">
        <ele>1457</ele>
        <time>2026-09-16T09:42:40.738Z</time>
      </trkpt>
      <trkpt lat="61.6057189063164" lon="8.61023279344846">
        <ele>1457</ele>
        <time>2026-09-16T09:42:40.738Z</time>
      </trkpt>
      <trkpt lat="61.605656106034" lon="8.60947032016376">
        <ele>1458</ele>
        <time>2026-09-16T09:42:40.738Z</time>
      </trkpt>
      <trkpt lat="61.6056446789786" lon="8.60922680540735">
        <ele>1459</ele>
        <time>2026-09-16T09:42:40.738Z</time>
      </trkpt>
      <trkpt lat="61.6056103952179" lon="8.60849626237215">
        <ele>1459</ele>
        <time>2026-09-16T09:42:40.738Z</time>
      </trkpt>
      <trkpt lat="61.6055833992685" lon="8.6075372473668">
        <ele>1460</ele>
        <time>2026-09-16T09:42:40.738Z</time>
      </trkpt>
      <trkpt lat="61.605467565277" lon="8.60602920863386">
        <ele>1463</ele>
        <time>2026-09-16T09:42:40.738Z</time>
      </trkpt>
      <trkpt lat="61.6054122792831" lon="8.60465995283869">
        <ele>1466</ele>
        <time>2026-09-16T09:42:40.738Z</time>
      </trkpt>
      <trkpt lat="61.6053986999694" lon="8.60360359673289">
        <ele>1467</ele>
        <time>2026-09-16T09:42:40.738Z</time>
      </trkpt>
      <trkpt lat="61.605404714708" lon="8.60258100992198">
        <ele>1469</ele>
        <time>2026-09-16T09:42:40.738Z</time>
      </trkpt>
      <trkpt lat="61.6054492871639" lon="8.60122890060675">
        <ele>1472</ele>
        <time>2026-09-16T09:42:40.738Z</time>
      </trkpt>
      <trkpt lat="61.6054312799466" lon="8.60007888916069">
        <ele>1473</ele>
        <time>2026-09-16T09:42:40.738Z</time>
      </trkpt>
      <trkpt lat="61.6054277588375" lon="8.60000396344151">
        <ele>1474</ele>
        <time>2026-09-16T09:42:40.738Z</time>
      </trkpt>
      <trkpt lat="61.6054134961662" lon="8.59855055486047">
        <ele>1475</ele>
        <time>2026-09-16T09:42:40.738Z</time>
      </trkpt>
      <trkpt lat="61.6053641851979" lon="8.59750160030816">
        <ele>1476</ele>
        <time>2026-09-16T09:42:40.738Z</time>
      </trkpt>
      <trkpt lat="61.6052835857144" lon="8.5965537028786">
        <ele>1475</ele>
        <time>2026-09-16T09:42:40.738Z</time>
      </trkpt>
      <trkpt lat="61.6052430683319" lon="8.59569206833855">
        <ele>1474</ele>
        <time>2026-09-16T09:42:40.738Z</time>
      </trkpt>
      <trkpt lat="61.6052110279858" lon="8.59405321227729">
        <ele>1477</ele>
        <time>2026-09-16T09:42:40.738Z</time>
      </trkpt>
      <trkpt lat="61.605129848531" lon="8.59251911840647">
        <ele>1477</ele>
        <time>2026-09-16T09:42:40.738Z</time>
      </trkpt>
      <trkpt lat="61.6050909616826" lon="8.59188411664972">
        <ele>1477</ele>
        <time>2026-09-16T09:42:40.738Z</time>
      </trkpt>
      <trkpt lat="61.605103059309" lon="8.59099265929295">
        <ele>1478</ele>
        <time>2026-09-16T09:42:40.738Z</time>
      </trkpt>
      <trkpt lat="61.6051218885038" lon="8.59081852848508">
        <ele>1479</ele>
        <time>2026-09-16T09:42:40.738Z</time>
      </trkpt>
      <trkpt lat="61.6051675855988" lon="8.59044968432808">
        <ele>1479</ele>
        <time>2026-09-16T09:42:40.738Z</time>
      </trkpt>
      <trkpt lat="61.6052436756353" lon="8.58996104886573">
        <ele>1478</ele>
        <time>2026-09-16T09:42:40.738Z</time>
      </trkpt>
      <trkpt lat="61.6053181039623" lon="8.58924578808884">
        <ele>1479</ele>
        <time>2026-09-16T09:42:40.738Z</time>
      </trkpt>
      <trkpt lat="61.6054595887624" lon="8.5882328942968">
        <ele>1479</ele>
        <time>2026-09-16T09:42:40.738Z</time>
      </trkpt>
      <trkpt lat="61.6055492037385" lon="8.58745772795279">
        <ele>1480</ele>
        <time>2026-09-16T09:42:40.738Z</time>
      </trkpt>
      <trkpt lat="61.605652444302" lon="8.58620687197027">
        <ele>1481</ele>
        <time>2026-09-16T09:42:40.738Z</time>
      </trkpt>
      <trkpt lat="61.6057288131125" lon="8.58515072948912">
        <ele>1479</ele>
        <time>2026-09-16T09:42:40.738Z</time>
      </trkpt>
      <trkpt lat="61.6057970389083" lon="8.58430432981919">
        <ele>1480</ele>
        <time>2026-09-16T09:42:40.738Z</time>
      </trkpt>
      <trkpt lat="61.6058812405838" lon="8.58360592237965">
        <ele>1480</ele>
        <time>2026-09-16T09:42:40.738Z</time>
      </trkpt>
      <trkpt lat="61.6059474073213" lon="8.58328954666753">
        <ele>1479</ele>
        <time>2026-09-16T09:42:40.738Z</time>
      </trkpt>
      <trkpt lat="61.6060733712814" lon="8.58290400332315">
        <ele>1479</ele>
        <time>2026-09-16T09:42:40.738Z</time>
      </trkpt>
      <trkpt lat="61.6060842460164" lon="8.58256128201757">
        <ele>1479</ele>
        <time>2026-09-16T09:42:40.738Z</time>
      </trkpt>
      <trkpt lat="61.6060883369613" lon="8.58150121566282">
        <ele>1478</ele>
        <time>2026-09-16T09:42:40.738Z</time>
      </trkpt>
      <trkpt lat="61.6060799669815" lon="8.58036807909197">
        <ele>1477</ele>
        <time>2026-09-16T09:42:40.738Z</time>
      </trkpt>
      <trkpt lat="61.6060945481723" lon="8.57972195149207">
        <ele>1476</ele>
        <time>2026-09-16T09:42:40.738Z</time>
      </trkpt>
      <trkpt lat="61.606112658891" lon="8.57915074775567">
        <ele>1475</ele>
        <time>2026-09-16T09:42:40.738Z</time>
      </trkpt>
      <trkpt lat="61.6061117757454" lon="8.57913201668155">
        <ele>1475</ele>
        <time>2026-09-16T09:42:40.738Z</time>
      </trkpt>
      <trkpt lat="61.606128381712" lon="8.57795585494257">
        <ele>1474</ele>
        <time>2026-09-16T09:42:40.738Z</time>
      </trkpt>
      <trkpt lat="61.6061244856443" lon="8.57672720963576">
        <ele>1472</ele>
        <time>2026-09-16T09:42:40.738Z</time>
      </trkpt>
      <trkpt lat="61.6061276475857" lon="8.57564841290376">
        <ele>1472</ele>
        <time>2026-09-16T09:42:40.738Z</time>
      </trkpt>
      <trkpt lat="61.6061304670106" lon="8.57532627594502">
        <ele>1472</ele>
        <time>2026-09-16T09:42:40.738Z</time>
      </trkpt>
      <trkpt lat="61.606142703062" lon="8.5738672940208">
        <ele>1474</ele>
        <time>2026-09-16T09:42:40.738Z</time>
      </trkpt>
      <trkpt lat="61.6062288607429" lon="8.57263881945768">
        <ele>1475</ele>
        <time>2026-09-16T09:42:40.738Z</time>
      </trkpt>
      <trkpt lat="61.6062396296683" lon="8.57248525970187">
        <ele>1476</ele>
        <time>2026-09-16T09:42:40.738Z</time>
      </trkpt>
      <trkpt lat="61.6063193494291" lon="8.57169315903085">
        <ele>1478</ele>
        <time>2026-09-16T09:42:40.738Z</time>
      </trkpt>
      <trkpt lat="61.606362575474" lon="8.57070058464109">
        <ele>1482</ele>
        <time>2026-09-16T09:42:40.738Z</time>
      </trkpt>
      <trkpt lat="61.6063827222904" lon="8.56941017077562">
        <ele>1487</ele>
        <time>2026-09-16T09:42:40.738Z</time>
      </trkpt>
      <trkpt lat="61.6064891109749" lon="8.56880165389745">
        <ele>1492</ele>
        <time>2026-09-16T09:42:40.738Z</time>
      </trkpt>
      <trkpt lat="61.6065804574823" lon="8.56787470678583">
        <ele>1495</ele>
        <time>2026-09-16T09:42:40.738Z</time>
      </trkpt>
      <trkpt lat="61.6066858815131" lon="8.56743661777542">
        <ele>1498</ele>
        <time>2026-09-16T09:42:40.738Z</time>
      </trkpt>
      <trkpt lat="61.6069512050579" lon="8.56637884467843">
        <ele>1501</ele>
        <time>2026-09-16T09:42:40.738Z</time>
      </trkpt>
      <trkpt lat="61.6071520951291" lon="8.56586411135311">
        <ele>1504</ele>
        <time>2026-09-16T09:42:40.738Z</time>
      </trkpt>
      <trkpt lat="61.6074895161527" lon="8.56518851678402">
        <ele>1512</ele>
        <time>2026-09-16T09:42:40.738Z</time>
      </trkpt>
      <trkpt lat="61.6076528799567" lon="8.56483291177783">
        <ele>1516</ele>
        <time>2026-09-16T09:42:40.738Z</time>
      </trkpt>
      <trkpt lat="61.6078162427806" lon="8.5644773030189">
        <ele>1519</ele>
        <time>2026-09-16T09:42:40.738Z</time>
      </trkpt>
      <trkpt lat="61.6081509327978" lon="8.5639346598978">
        <ele>1528</ele>
        <time>2026-09-16T09:42:40.738Z</time>
      </trkpt>
      <trkpt lat="61.6084712532666" lon="8.56365982901634">
        <ele>1537</ele>
        <time>2026-09-16T09:42:40.738Z</time>
      </trkpt>
      <trkpt lat="61.6085060499555" lon="8.56363366110084">
        <ele>1538</ele>
        <time>2026-09-16T09:42:40.738Z</time>
      </trkpt>
      <trkpt lat="61.608934166034" lon="8.56373360881927">
        <ele>1548</ele>
        <time>2026-09-16T09:42:40.738Z</time>
      </trkpt>
      <trkpt lat="61.6095034413718" lon="8.56319879583671">
        <ele>1554</ele>
        <time>2026-09-16T09:42:40.738Z</time>
      </trkpt>
      <trkpt lat="61.6100834056657" lon="8.56269956899031">
        <ele>1558</ele>
        <time>2026-09-16T09:42:40.738Z</time>
      </trkpt>
      <trkpt lat="61.6101271226086" lon="8.56267153913096">
        <ele>1558</ele>
        <time>2026-09-16T09:42:40.738Z</time>
      </trkpt>
      <trkpt lat="61.6102065214412" lon="8.56263607152639">
        <ele>1558</ele>
        <time>2026-09-16T09:42:40.738Z</time>
      </trkpt>
      <trkpt lat="61.6106812087893" lon="8.56219660371393">
        <ele>1562</ele>
        <time>2026-09-16T09:42:40.738Z</time>
      </trkpt>
      <trkpt lat="61.611096108008" lon="8.56182634057036">
        <ele>1566</ele>
        <time>2026-09-16T09:42:40.738Z</time>
      </trkpt>
      <trkpt lat="61.611587811722" lon="8.56117519638211">
        <ele>1575</ele>
        <time>2026-09-16T09:42:40.738Z</time>
      </trkpt>
      <trkpt lat="61.6117056126402" lon="8.56099928671778">
        <ele>1576</ele>
        <time>2026-09-16T09:42:40.738Z</time>
      </trkpt>
      <trkpt lat="61.6119153381523" lon="8.56067177759416">
        <ele>1585</ele>
        <time>2026-09-16T09:42:40.738Z</time>
      </trkpt>
      <trkpt lat="61.6122215407738" lon="8.55990793143841">
        <ele>1594</ele>
        <time>2026-09-16T09:42:40.738Z</time>
      </trkpt>
      <trkpt lat="61.61230903524" lon="8.55966265813966">
        <ele>1598</ele>
        <time>2026-09-16T09:42:40.738Z</time>
      </trkpt>
      <trkpt lat="61.6126349052868" lon="8.55874333619284">
        <ele>1612</ele>
        <time>2026-09-16T09:42:40.738Z</time>
      </trkpt>
      <trkpt lat="61.6127501047969" lon="8.55832200425974">
        <ele>1616</ele>
        <time>2026-09-16T09:42:40.738Z</time>
      </trkpt>
      <trkpt lat="61.612803686892" lon="8.55812163476641">
        <ele>1619</ele>
        <time>2026-09-16T09:42:40.738Z</time>
      </trkpt>
      <trkpt lat="61.6128502387161" lon="8.55758218512887">
        <ele>1626</ele>
        <time>2026-09-16T09:42:40.738Z</time>
      </trkpt>
      <trkpt lat="61.6128504140646" lon="8.55701457149525">
        <ele>1634</ele>
        <time>2026-09-16T09:42:40.738Z</time>
      </trkpt>
      <trkpt lat="61.6128674264664" lon="8.55680291005816">
        <ele>1637</ele>
        <time>2026-09-16T09:42:40.738Z</time>
      </trkpt>
      <trkpt lat="61.6128719154972" lon="8.55670737709079">
        <ele>1638</ele>
        <time>2026-09-16T09:42:40.738Z</time>
      </trkpt>
      <trkpt lat="61.6128934733005" lon="8.55621097757266">
        <ele>1641</ele>
        <time>2026-09-16T09:42:40.738Z</time>
      </trkpt>
      <trkpt lat="61.6129811294872" lon="8.55539807313296">
        <ele>1648</ele>
        <time>2026-09-16T09:42:40.738Z</time>
      </trkpt>
      <trkpt lat="61.6131285086511" lon="8.55470513345013">
        <ele>1654</ele>
        <time>2026-09-16T09:42:40.738Z</time>
      </trkpt>
      <trkpt lat="61.613228514552" lon="8.55434370786654">
        <ele>1657</ele>
        <time>2026-09-16T09:42:40.738Z</time>
      </trkpt>
      <trkpt lat="61.6134651445098" lon="8.55344292732089">
        <ele>1683</ele>
        <time>2026-09-16T09:42:40.738Z</time>
      </trkpt>
      <trkpt lat="61.6137384394055" lon="8.5521749984064">
        <ele>1664</ele>
        <time>2026-09-16T09:42:40.738Z</time>
      </trkpt>
      <trkpt lat="61.6137867917439" lon="8.55148378442737">
        <ele>1683</ele>
        <time>2026-09-16T09:42:40.738Z</time>
      </trkpt>
      <trkpt lat="61.613775310405" lon="8.55105102386671">
        <ele>1683</ele>
        <time>2026-09-16T09:42:40.738Z</time>
      </trkpt>
      <trkpt lat="61.6136915785181" lon="8.55061443427811">
        <ele>1684</ele>
        <time>2026-09-16T09:42:40.738Z</time>
      </trkpt>
      <trkpt lat="61.6135534365886" lon="8.55017029219539">
        <ele>1686</ele>
        <time>2026-09-16T09:42:40.738Z</time>
      </trkpt>
      <trkpt lat="61.613473202734" lon="8.54999785375159">
        <ele>1686</ele>
        <time>2026-09-16T09:42:40.738Z</time>
      </trkpt>
      <trkpt lat="61.6133127344064" lon="8.54965297955046">
        <ele>1688</ele>
        <time>2026-09-16T09:42:40.738Z</time>
      </trkpt>
      <trkpt lat="61.6131745894763" lon="8.54920884729159">
        <ele>1687</ele>
        <time>2026-09-16T09:42:40.738Z</time>
      </trkpt>
      <trkpt lat="61.6130195365582" lon="8.54859797555514">
        <ele>1684</ele>
        <time>2026-09-16T09:42:40.738Z</time>
      </trkpt>
      <trkpt lat="61.6129759151144" lon="8.54824761883172">
        <ele>1684</ele>
        <time>2026-09-16T09:42:40.738Z</time>
      </trkpt>
      <trkpt lat="61.6129904757032" lon="8.54703372729499">
        <ele>1665</ele>
        <time>2026-09-16T09:42:40.738Z</time>
      </trkpt>
      <trkpt lat="61.6130344492855" lon="8.54587044392099">
        <ele>1683</ele>
        <time>2026-09-16T09:42:40.738Z</time>
      </trkpt>
      <trkpt lat="61.6131632960198" lon="8.54402722330572">
        <ele>1683</ele>
        <time>2026-09-16T09:42:40.738Z</time>
      </trkpt>
      <trkpt lat="61.6132277485634" lon="8.54291640210895">
        <ele>1666</ele>
        <time>2026-09-16T09:42:40.738Z</time>
      </trkpt>
      <trkpt lat="61.6132341556162" lon="8.54210151196529">
        <ele>1666</ele>
        <time>2026-09-16T09:42:40.738Z</time>
      </trkpt>
      <trkpt lat="61.6131941442438" lon="8.54144768816577">
        <ele>1668</ele>
        <time>2026-09-16T09:42:40.738Z</time>
      </trkpt>
      <trkpt lat="61.6131193021721" lon="8.54100926868898">
        <ele>1671</ele>
        <time>2026-09-16T09:42:40.738Z</time>
      </trkpt>
      <trkpt lat="61.6130989376381" lon="8.5401999799925">
        <ele>1669</ele>
        <time>2026-09-16T09:42:40.738Z</time>
      </trkpt>
      <trkpt lat="61.6131089499093" lon="8.53908161970432">
        <ele>1664</ele>
        <time>2026-09-16T09:42:40.738Z</time>
      </trkpt>
      <trkpt lat="61.6131269841911" lon="8.53794265871389">
        <ele>1661</ele>
        <time>2026-09-16T09:42:40.738Z</time>
      </trkpt>
      <trkpt lat="61.6131940839812" lon="8.53669882555002">
        <ele>1657</ele>
        <time>2026-09-16T09:42:40.738Z</time>
      </trkpt>
      <trkpt lat="61.613192305942" lon="8.53666135798406">
        <ele>1657</ele>
        <time>2026-09-16T09:42:40.738Z</time>
      </trkpt>
      <trkpt lat="61.6131816959277" lon="8.53605814301275">
        <ele>1656</ele>
        <time>2026-09-16T09:42:40.738Z</time>
      </trkpt>
      <trkpt lat="61.6131745830085" lon="8.53590827302826">
        <ele>1654</ele>
        <time>2026-09-16T09:42:40.738Z</time>
      </trkpt>
      <trkpt lat="61.6131443232765" lon="8.53546053101136">
        <ele>1657</ele>
        <time>2026-09-16T09:42:40.738Z</time>
      </trkpt>
      <trkpt lat="61.6131211759831" lon="8.5351626593844">
        <ele>1655</ele>
        <time>2026-09-16T09:42:40.738Z</time>
      </trkpt>
      <trkpt lat="61.6130606235944" lon="8.53445638355234">
        <ele>1655</ele>
        <time>2026-09-16T09:42:40.738Z</time>
      </trkpt>
      <trkpt lat="61.6130526459622" lon="8.53409857713842">
        <ele>1656</ele>
        <time>2026-09-16T09:42:40.738Z</time>
      </trkpt>
      <trkpt lat="61.6129751376686" lon="8.5334147749002">
        <ele>1654</ele>
        <time>2026-09-16T09:42:40.738Z</time>
      </trkpt>
      <trkpt lat="61.6127773139287" lon="8.53190478808691">
        <ele>1653</ele>
        <time>2026-09-16T09:42:40.738Z</time>
      </trkpt>
      <trkpt lat="61.6126971475688" lon="8.5309755967738">
        <ele>1650</ele>
        <time>2026-09-16T09:42:40.738Z</time>
      </trkpt>
      <trkpt lat="61.6126695626387" lon="8.53039486593866">
        <ele>1651</ele>
        <time>2026-09-16T09:42:40.738Z</time>
      </trkpt>
      <trkpt lat="61.6127124240131" lon="8.52996965206452">
        <ele>1649</ele>
        <time>2026-09-16T09:42:40.738Z</time>
      </trkpt>
      <trkpt lat="61.6127677638872" lon="8.52961750099969">
        <ele>1647</ele>
        <time>2026-09-16T09:42:40.738Z</time>
      </trkpt>
      <trkpt lat="61.6128534225943" lon="8.52933467426917">
        <ele>1647</ele>
        <time>2026-09-16T09:42:40.738Z</time>
      </trkpt>
      <trkpt lat="61.6133325377839" lon="8.52804230399756">
        <ele>1642</ele>
        <time>2026-09-16T09:42:40.738Z</time>
      </trkpt>
      <trkpt lat="61.6136796071376" lon="8.5270046186683">
        <ele>1637</ele>
        <time>2026-09-16T09:42:40.738Z</time>
      </trkpt>
      <trkpt lat="61.6137277840359" lon="8.5268809965455">
        <ele>1636</ele>
        <time>2026-09-16T09:42:40.738Z</time>
      </trkpt>
      <trkpt lat="61.6141613853011" lon="8.52557917025024">
        <ele>1631</ele>
        <time>2026-09-16T09:42:40.738Z</time>
      </trkpt>
      <trkpt lat="61.6143621294491" lon="8.52487484727671">
        <ele>1629</ele>
        <time>2026-09-16T09:42:40.738Z</time>
      </trkpt>
      <trkpt lat="61.614636021884" lon="8.52400380434182">
        <ele>1627</ele>
        <time>2026-09-16T09:42:40.738Z</time>
      </trkpt>
      <trkpt lat="61.6149117011129" lon="8.52298100047292">
        <ele>1623</ele>
        <time>2026-09-16T09:42:40.738Z</time>
      </trkpt>
      <trkpt lat="61.6150517652007" lon="8.52251642776433">
        <ele>1622</ele>
        <time>2026-09-16T09:42:40.738Z</time>
      </trkpt>
      <trkpt lat="61.6153158222783" lon="8.52181769883897">
        <ele>1621</ele>
        <time>2026-09-16T09:42:40.738Z</time>
      </trkpt>
      <trkpt lat="61.6155950334776" lon="8.52124822888044">
        <ele>1622</ele>
        <time>2026-09-16T09:42:40.738Z</time>
      </trkpt>
      <trkpt lat="61.6160990319889" lon="8.52029097717018">
        <ele>1622</ele>
        <time>2026-09-16T09:42:40.738Z</time>
      </trkpt>
      <trkpt lat="61.6163826992469" lon="8.51962593130973">
        <ele>1620</ele>
        <time>2026-09-16T09:42:40.738Z</time>
      </trkpt>
      <trkpt lat="61.6165486137026" lon="8.51932619320064">
        <ele>1620</ele>
        <time>2026-09-16T09:42:40.738Z</time>
      </trkpt>
      <trkpt lat="61.6168429787158" lon="8.51869672690715">
        <ele>1620</ele>
        <time>2026-09-16T09:42:40.738Z</time>
      </trkpt>
      <trkpt lat="61.6173273413048" lon="8.51732721213528">
        <ele>1618</ele>
        <time>2026-09-16T09:42:40.738Z</time>
      </trkpt>
      <trkpt lat="61.6174548965158" lon="8.51697873805307">
        <ele>1617</ele>
        <time>2026-09-16T09:42:40.738Z</time>
      </trkpt>
      <trkpt lat="61.6177269515863" lon="8.5162592988878">
        <ele>1615</ele>
        <time>2026-09-16T09:42:40.738Z</time>
      </trkpt>
      <trkpt lat="61.6180382490205" lon="8.51560729654917">
        <ele>1613</ele>
        <time>2026-09-16T09:42:40.738Z</time>
      </trkpt>
      <trkpt lat="61.6183111896556" lon="8.51528503686658">
        <ele>1612</ele>
        <time>2026-09-16T09:42:40.738Z</time>
      </trkpt>
      <trkpt lat="61.6189578575123" lon="8.51429761977009">
        <ele>1612</ele>
        <time>2026-09-16T09:42:40.738Z</time>
      </trkpt>
      <trkpt lat="61.6195741897451" lon="8.51324083690201">
        <ele>1612</ele>
        <time>2026-09-16T09:42:40.738Z</time>
      </trkpt>
      <trkpt lat="61.6198506858237" lon="8.51261500012788">
        <ele>1612</ele>
        <time>2026-09-16T09:42:40.738Z</time>
      </trkpt>
      <trkpt lat="61.6202306385138" lon="8.51170246056092">
        <ele>1611</ele>
        <time>2026-09-16T09:42:40.738Z</time>
      </trkpt>
      <trkpt lat="61.6205508323166" lon="8.51104848425198">
        <ele>1612</ele>
        <time>2026-09-16T09:42:40.738Z</time>
      </trkpt>
      <trkpt lat="61.6210627736179" lon="8.50988104840737">
        <ele>1612</ele>
        <time>2026-09-16T09:42:40.738Z</time>
      </trkpt>
      <trkpt lat="61.621506027058" lon="8.50878479377548">
        <ele>1613</ele>
        <time>2026-09-16T09:42:40.738Z</time>
      </trkpt>
      <trkpt lat="61.621714717552" lon="8.50824883760895">
        <ele>1611</ele>
        <time>2026-09-16T09:42:40.738Z</time>
      </trkpt>
      <trkpt lat="61.6218039020343" lon="8.50804082267931">
        <ele>1611</ele>
        <time>2026-09-16T09:42:40.738Z</time>
      </trkpt>
      <trkpt lat="61.6220750024878" lon="8.5071132092591">
        <ele>1609</ele>
        <time>2026-09-16T09:42:40.738Z</time>
      </trkpt>
      <trkpt lat="61.6226100934974" lon="8.50586506777204">
        <ele>1604</ele>
        <time>2026-09-16T09:42:40.738Z</time>
      </trkpt>
      <trkpt lat="61.6233093115676" lon="8.50484731389658">
        <ele>1601</ele>
        <time>2026-09-16T09:42:40.738Z</time>
      </trkpt>
      <trkpt lat="61.6239585792824" lon="8.50391573419494">
        <ele>1598</ele>
        <time>2026-09-16T09:42:40.738Z</time>
      </trkpt>
      <trkpt lat="61.6241440830723" lon="8.50364956129555">
        <ele>1596</ele>
        <time>2026-09-16T09:42:40.738Z</time>
      </trkpt>
      <trkpt lat="61.6246033713959" lon="8.50289041777742">
        <ele>1591</ele>
        <time>2026-09-16T09:42:40.738Z</time>
      </trkpt>
      <trkpt lat="61.6250403471223" lon="8.50204130920546">
        <ele>1584</ele>
        <time>2026-09-16T09:42:40.738Z</time>
      </trkpt>
      <trkpt lat="61.6252516914104" lon="8.5015614656645">
        <ele>1579</ele>
        <time>2026-09-16T09:42:40.738Z</time>
      </trkpt>
      <trkpt lat="61.6252846871101" lon="8.50149773365248">
        <ele>1578</ele>
        <time>2026-09-16T09:42:40.738Z</time>
      </trkpt>
      <trkpt lat="61.6254933679908" lon="8.50115094019767">
        <ele>1574</ele>
        <time>2026-09-16T09:42:40.738Z</time>
      </trkpt>
      <trkpt lat="61.6256583451467" lon="8.50083227406965">
        <ele>1571</ele>
        <time>2026-09-16T09:42:40.738Z</time>
      </trkpt>
      <trkpt lat="61.6259677978178" lon="8.50033174845411">
        <ele>1567</ele>
        <time>2026-09-16T09:42:40.738Z</time>
      </trkpt>
      <trkpt lat="61.6261140400842" lon="8.49999809014333">
        <ele>1565</ele>
        <time>2026-09-16T09:42:40.738Z</time>
      </trkpt>
      <trkpt lat="61.626308432291" lon="8.49954071394171">
        <ele>1562</ele>
        <time>2026-09-16T09:42:40.738Z</time>
      </trkpt>
      <trkpt lat="61.6265813082853" lon="8.49902894024662">
        <ele>1559</ele>
        <time>2026-09-16T09:42:40.738Z</time>
      </trkpt>
      <trkpt lat="61.6271011906274" lon="8.4980297443942">
        <ele>1552</ele>
        <time>2026-09-16T09:42:40.738Z</time>
      </trkpt>
      <trkpt lat="61.6275622345212" lon="8.49730792594352">
        <ele>1550</ele>
        <time>2026-09-16T09:42:40.738Z</time>
      </trkpt>
      <trkpt lat="61.6279198213753" lon="8.49668360818478">
        <ele>1548</ele>
        <time>2026-09-16T09:42:40.738Z</time>
      </trkpt>
      <trkpt lat="61.6285181692361" lon="8.49562992524979">
        <ele>1545</ele>
        <time>2026-09-16T09:42:40.738Z</time>
      </trkpt>
      <trkpt lat="61.6290032725779" lon="8.49484617090985">
        <ele>1542</ele>
        <time>2026-09-16T09:42:40.738Z</time>
      </trkpt>
      <trkpt lat="61.6293243057451" lon="8.49439987578473">
        <ele>1540</ele>
        <time>2026-09-16T09:42:40.738Z</time>
      </trkpt>
      <trkpt lat="61.6298040624239" lon="8.4936929310414">
        <ele>1538</ele>
        <time>2026-09-16T09:42:40.738Z</time>
      </trkpt>
      <trkpt lat="61.6298860942565" lon="8.49352418496166">
        <ele>1537</ele>
        <time>2026-09-16T09:42:40.738Z</time>
      </trkpt>
      <trkpt lat="61.6301749942265" lon="8.49297105146498">
        <ele>1535</ele>
        <time>2026-09-16T09:42:40.738Z</time>
      </trkpt>
      <trkpt lat="61.6305004306955" lon="8.49223981819215">
        <ele>1532</ele>
        <time>2026-09-16T09:42:40.738Z</time>
      </trkpt>
      <trkpt lat="61.630768834778" lon="8.49182350510578">
        <ele>1529</ele>
        <time>2026-09-16T09:42:40.738Z</time>
      </trkpt>
      <trkpt lat="61.6311665135982" lon="8.49109593553573">
        <ele>1526</ele>
        <time>2026-09-16T09:42:40.738Z</time>
      </trkpt>
      <trkpt lat="61.6315837815686" lon="8.49021275610645">
        <ele>1522</ele>
        <time>2026-09-16T09:42:40.738Z</time>
      </trkpt>
      <trkpt lat="61.6319849964996" lon="8.48937080400976">
        <ele>1521</ele>
        <time>2026-09-16T09:42:40.738Z</time>
      </trkpt>
      <trkpt lat="61.6324646865816" lon="8.48847440046443">
        <ele>1519</ele>
        <time>2026-09-16T09:42:40.738Z</time>
      </trkpt>
      <trkpt lat="61.6327660277885" lon="8.48780494520152">
        <ele>1519</ele>
        <time>2026-09-16T09:42:40.738Z</time>
      </trkpt>
      <trkpt lat="61.6328988387714" lon="8.48737931758331">
        <ele>1519</ele>
        <time>2026-09-16T09:42:40.738Z</time>
      </trkpt>
      <trkpt lat="61.6333606351087" lon="8.4862972986043">
        <ele>1518</ele>
        <time>2026-09-16T09:42:40.738Z</time>
      </trkpt>
      <trkpt lat="61.6334087730899" lon="8.48617353466473">
        <ele>1517</ele>
        <time>2026-09-16T09:42:40.738Z</time>
      </trkpt>
      <trkpt lat="61.6336227039881" lon="8.48556035949162">
        <ele>1515</ele>
        <time>2026-09-16T09:42:40.738Z</time>
      </trkpt>
      <trkpt lat="61.6337252088213" lon="8.48525471050944">
        <ele>1513</ele>
        <time>2026-09-16T09:42:40.738Z</time>
      </trkpt>
      <trkpt lat="61.634038904233" lon="8.48409030622713">
        <ele>1510</ele>
        <time>2026-09-16T09:42:40.738Z</time>
      </trkpt>
      <trkpt lat="61.634202851251" lon="8.48337405774594">
        <ele>1507</ele>
        <time>2026-09-16T09:42:40.738Z</time>
      </trkpt>
      <trkpt lat="61.634472831647" lon="8.48223778394228">
        <ele>1505</ele>
        <time>2026-09-16T09:42:40.738Z</time>
      </trkpt>
      <trkpt lat="61.6346037828731" lon="8.48158528869811">
        <ele>1505</ele>
        <time>2026-09-16T09:42:40.738Z</time>
      </trkpt>
      <trkpt lat="61.6347525688957" lon="8.48092901838963">
        <ele>1505</ele>
        <time>2026-09-16T09:42:40.738Z</time>
      </trkpt>
      <trkpt lat="61.6348576536702" lon="8.48030091190476">
        <ele>1504</ele>
        <time>2026-09-16T09:42:40.738Z</time>
      </trkpt>
      <trkpt lat="61.6350001542029" lon="8.47951341641664">
        <ele>1503</ele>
        <time>2026-09-16T09:42:40.738Z</time>
      </trkpt>
      <trkpt lat="61.6352085660946" lon="8.47840902531909">
        <ele>1501</ele>
        <time>2026-09-16T09:42:40.738Z</time>
      </trkpt>
      <trkpt lat="61.6354749146333" lon="8.47719769294713">
        <ele>1501</ele>
        <time>2026-09-16T09:42:40.738Z</time>
      </trkpt>
      <trkpt lat="61.6356005119921" lon="8.47662202292115">
        <ele>1499</ele>
        <time>2026-09-16T09:42:40.738Z</time>
      </trkpt>
      <trkpt lat="61.6356949187398" lon="8.4761476192824">
        <ele>1498</ele>
        <time>2026-09-16T09:42:40.738Z</time>
      </trkpt>
      <trkpt lat="61.635863253817" lon="8.47533567970361">
        <ele>1498</ele>
        <time>2026-09-16T09:42:40.738Z</time>
      </trkpt>
      <trkpt lat="61.6362346867345" lon="8.47368548118711">
        <ele>1495</ele>
        <time>2026-09-16T09:42:40.738Z</time>
      </trkpt>
      <trkpt lat="61.6366310595044" lon="8.47199209017782">
        <ele>1492</ele>
        <time>2026-09-16T09:42:40.738Z</time>
      </trkpt>
      <trkpt lat="61.6368154104543" lon="8.47113883766492">
        <ele>1487</ele>
        <time>2026-09-16T09:42:40.738Z</time>
      </trkpt>
      <trkpt lat="61.6368599412978" lon="8.4709400541905">
        <ele>1487</ele>
        <time>2026-09-16T09:42:40.738Z</time>
      </trkpt>
      <trkpt lat="61.637013101944" lon="8.47018807049597">
        <ele>1486</ele>
        <time>2026-09-16T09:42:40.738Z</time>
      </trkpt>
      <trkpt lat="61.6373364159648" lon="8.46885090540932">
        <ele>1489</ele>
        <time>2026-09-16T09:42:40.738Z</time>
      </trkpt>
      <trkpt lat="61.6374861047585" lon="8.46840261249356">
        <ele>1490</ele>
        <time>2026-09-16T09:42:40.738Z</time>
      </trkpt>
      <trkpt lat="61.6376714670663" lon="8.46794676003733">
        <ele>1490</ele>
        <time>2026-09-16T09:42:40.738Z</time>
      </trkpt>
      <trkpt lat="61.6376714670663" lon="8.46794676003733">
        <ele>1490</ele>
        <time>2026-09-16T09:42:40.738Z</time>
      </trkpt>
      <trkpt lat="61.6378594555546" lon="8.4673577903484">
        <ele>1495</ele>
        <time>2026-09-16T09:42:40.738Z</time>
      </trkpt>
      <trkpt lat="61.6380741282039" lon="8.46657379463392">
        <ele>1496</ele>
        <time>2026-09-16T09:42:40.738Z</time>
      </trkpt>
      <trkpt lat="61.6383351169313" lon="8.46562848055394">
        <ele>1497</ele>
        <time>2026-09-16T09:42:40.738Z</time>
      </trkpt>
      <trkpt lat="61.6386343261342" lon="8.46435312161791">
        <ele>1498</ele>
        <time>2026-09-16T09:42:40.738Z</time>
      </trkpt>
      <trkpt lat="61.6390021744936" lon="8.46300637603804">
        <ele>1499</ele>
        <time>2026-09-16T09:42:40.738Z</time>
      </trkpt>
      <trkpt lat="61.6393458751704" lon="8.46153215283874">
        <ele>1500</ele>
        <time>2026-09-16T09:42:40.738Z</time>
      </trkpt>
      <trkpt lat="61.6396431668965" lon="8.46002985992799">
        <ele>1501</ele>
        <time>2026-09-16T09:42:40.738Z</time>
      </trkpt>
      <trkpt lat="61.6396645242706" lon="8.45991170459543">
        <ele>1501</ele>
        <time>2026-09-16T09:42:40.738Z</time>
      </trkpt>
      <trkpt lat="61.6397027397375" lon="8.45958165875199">
        <ele>1498</ele>
        <time>2026-09-16T09:42:40.738Z</time>
      </trkpt>
      <trkpt lat="61.6398415984282" lon="8.45890832368003">
        <ele>1499</ele>
        <time>2026-09-16T09:42:40.738Z</time>
      </trkpt>
      <trkpt lat="61.6398976486082" lon="8.45857449146675">
        <ele>1499</ele>
        <time>2026-09-16T09:42:40.738Z</time>
      </trkpt>
      <trkpt lat="61.6401656162891" lon="8.45740030674135">
        <ele>1492</ele>
        <time>2026-09-16T09:42:40.738Z</time>
      </trkpt>
      <trkpt lat="61.6402687061854" lon="8.45654515732222">
        <ele>1486</ele>
        <time>2026-09-16T09:42:40.738Z</time>
      </trkpt>
      <trkpt lat="61.6404668515933" lon="8.45485548230747">
        <ele>1479</ele>
        <time>2026-09-16T09:42:40.738Z</time>
      </trkpt>
      <trkpt lat="61.6406200081838" lon="8.4542927012786">
        <ele>1479</ele>
        <time>2026-09-16T09:42:40.738Z</time>
      </trkpt>
      <trkpt lat="61.6406413604825" lon="8.45417453850399">
        <ele>1480</ele>
        <time>2026-09-16T09:42:40.738Z</time>
      </trkpt>
      <trkpt lat="61.6408211817713" lon="8.45341670438698">
        <ele>1474</ele>
        <time>2026-09-16T09:42:40.738Z</time>
      </trkpt>
      <trkpt lat="61.6410070360244" lon="8.45222198950241">
        <ele>1474</ele>
        <time>2026-09-16T09:42:40.738Z</time>
      </trkpt>
      <trkpt lat="61.6411972931182" lon="8.45093162924385">
        <ele>1460</ele>
        <time>2026-09-16T09:42:40.738Z</time>
      </trkpt>
      <trkpt lat="61.6412560264955" lon="8.45065401156577">
        <ele>1459</ele>
        <time>2026-09-16T09:42:40.738Z</time>
      </trkpt>
      <trkpt lat="61.641386822789" lon="8.45000124663324">
        <ele>1456</ele>
        <time>2026-09-16T09:42:40.738Z</time>
      </trkpt>
      <trkpt lat="61.6414802333967" lon="8.44950792971007">
        <ele>1452</ele>
        <time>2026-09-16T09:42:40.738Z</time>
      </trkpt>
      <trkpt lat="61.6416661478042" lon="8.44850253947557">
        <ele>1443</ele>
        <time>2026-09-16T09:42:40.738Z</time>
      </trkpt>
      <trkpt lat="61.6417238792656" lon="8.44801679333028">
        <ele>1442</ele>
        <time>2026-09-16T09:42:40.738Z</time>
      </trkpt>
      <trkpt lat="61.6417762964306" lon="8.4476079314447">
        <ele>1441</ele>
        <time>2026-09-16T09:42:40.738Z</time>
      </trkpt>
      <trkpt lat="61.6417985442867" lon="8.44750850768164">
        <ele>1440</ele>
        <time>2026-09-16T09:42:40.738Z</time>
      </trkpt>
      <trkpt lat="61.6418696981981" lon="8.44711460151813">
        <ele>1439</ele>
        <time>2026-09-16T09:42:40.738Z</time>
      </trkpt>
      <trkpt lat="61.6418962590603" lon="8.4467301698893">
        <ele>1438</ele>
        <time>2026-09-16T09:42:40.738Z</time>
      </trkpt>
      <trkpt lat="61.6421481879533" lon="8.44578647313136">
        <ele>1434</ele>
        <time>2026-09-16T09:42:40.738Z</time>
      </trkpt>
      <trkpt lat="61.6422906835996" lon="8.44537739342998">
        <ele>1433</ele>
        <time>2026-09-16T09:42:40.738Z</time>
      </trkpt>
      <trkpt lat="61.6424580292538" lon="8.44473575009723">
        <ele>1436</ele>
        <time>2026-09-16T09:42:40.738Z</time>
      </trkpt>
      <trkpt lat="61.642609834682" lon="8.44339662763738">
        <ele>1434</ele>
        <time>2026-09-16T09:42:40.738Z</time>
      </trkpt>
      <trkpt lat="61.6425908912533" lon="8.44300291804056">
        <ele>1435</ele>
        <time>2026-09-16T09:42:40.738Z</time>
      </trkpt>
      <trkpt lat="61.6426503037128" lon="8.44236526699451">
        <ele>1440</ele>
        <time>2026-09-16T09:42:40.738Z</time>
      </trkpt>
      <trkpt lat="61.6427616890827" lon="8.44056121759538">
        <ele>1434</ele>
        <time>2026-09-16T09:42:40.738Z</time>
      </trkpt>
      <trkpt lat="61.6428510253838" lon="8.43923534631668">
        <ele>1426</ele>
        <time>2026-09-16T09:42:40.738Z</time>
      </trkpt>
      <trkpt lat="61.6428693308965" lon="8.43849278600391">
        <ele>1421</ele>
        <time>2026-09-16T09:42:40.738Z</time>
      </trkpt>
      <trkpt lat="61.6428621090943" lon="8.43834280155037">
        <ele>1420</ele>
        <time>2026-09-16T09:42:40.738Z</time>
      </trkpt>
      <trkpt lat="61.6428557898829" lon="8.43821156521928">
        <ele>1419</ele>
        <time>2026-09-16T09:42:40.738Z</time>
      </trkpt>
      <trkpt lat="61.6427440380906" lon="8.43776184364459">
        <ele>1414</ele>
        <time>2026-09-16T09:42:40.738Z</time>
      </trkpt>
      <trkpt lat="61.6426393973133" lon="8.43727273160959">
        <ele>1408</ele>
        <time>2026-09-16T09:42:40.738Z</time>
      </trkpt>
      <trkpt lat="61.6423937582318" lon="8.43666211369802">
        <ele>1399</ele>
        <time>2026-09-16T09:42:40.738Z</time>
      </trkpt>
      <trkpt lat="61.6421695650774" lon="8.43612269903199">
        <ele>1393</ele>
        <time>2026-09-16T09:42:40.738Z</time>
      </trkpt>
      <trkpt lat="61.641750523047" lon="8.43490506807899">
        <ele>1380</ele>
        <time>2026-09-16T09:42:40.738Z</time>
      </trkpt>
      <trkpt lat="61.6416843690683" lon="8.43465399902576">
        <ele>1378</ele>
        <time>2026-09-16T09:42:40.738Z</time>
      </trkpt>
      <trkpt lat="61.6415547696536" lon="8.43420810551348">
        <ele>1373</ele>
        <time>2026-09-16T09:42:40.738Z</time>
      </trkpt>
      <trkpt lat="61.6413198423654" lon="8.433633128626">
        <ele>1364</ele>
        <time>2026-09-16T09:42:40.738Z</time>
      </trkpt>
      <trkpt lat="61.6411796308074" lon="8.4333410176858">
        <ele>1361</ele>
        <time>2026-09-16T09:42:40.738Z</time>
      </trkpt>
      <trkpt lat="61.6410885265307" lon="8.43313314764321">
        <ele>1358</ele>
        <time>2026-09-16T09:42:40.738Z</time>
      </trkpt>
      <trkpt lat="61.6407000626821" lon="8.43236361725899">
        <ele>1340</ele>
        <time>2026-09-16T09:42:40.738Z</time>
      </trkpt>
      <trkpt lat="61.6406598724872" lon="8.43227748196982">
        <ele>1338</ele>
        <time>2026-09-16T09:42:40.738Z</time>
      </trkpt>
      <trkpt lat="61.6401964446352" lon="8.43144818430566">
        <ele>1320</ele>
        <time>2026-09-16T09:42:40.738Z</time>
      </trkpt>
      <trkpt lat="61.6401777047648" lon="8.43143323717712">
        <ele>1319</ele>
        <time>2026-09-16T09:42:40.738Z</time>
      </trkpt>
      <trkpt lat="61.6396616673422" lon="8.43063410915366">
        <ele>1303</ele>
        <time>2026-09-16T09:42:40.738Z</time>
      </trkpt>
      <trkpt lat="61.6394652298203" lon="8.43029718905271">
        <ele>1300</ele>
        <time>2026-09-16T09:42:40.738Z</time>
      </trkpt>
      <trkpt lat="61.6394464898378" lon="8.430282242957">
        <ele>1300</ele>
        <time>2026-09-16T09:42:40.738Z</time>
      </trkpt>
      <trkpt lat="61.6390037195285" lon="8.42969479741321">
        <ele>1297</ele>
        <time>2026-09-16T09:42:40.738Z</time>
      </trkpt>
      <trkpt lat="61.6388885675542" lon="8.42954888860452">
        <ele>1299</ele>
        <time>2026-09-16T09:42:40.738Z</time>
      </trkpt>
      <trkpt lat="61.6384574243723" lon="8.42901579888821">
        <ele>1302</ele>
        <time>2026-09-16T09:42:40.738Z</time>
      </trkpt>
      <trkpt lat="61.6381904204861" lon="8.42852349937402">
        <ele>1297</ele>
        <time>2026-09-16T09:42:40.738Z</time>
      </trkpt>
      <trkpt lat="61.6380814732286" lon="8.4283194640805">
        <ele>1296</ele>
        <time>2026-09-16T09:42:40.738Z</time>
      </trkpt>
      <trkpt lat="61.6376279688529" lon="8.42769648337401">
        <ele>1288</ele>
        <time>2026-09-16T09:42:40.738Z</time>
      </trkpt>
      <trkpt lat="61.6373217956033" lon="8.42732617658962">
        <ele>1278</ele>
        <time>2026-09-16T09:42:40.738Z</time>
      </trkpt>
      <trkpt lat="61.6371495162374" lon="8.42711671068419">
        <ele>1277</ele>
        <time>2026-09-16T09:42:40.738Z</time>
      </trkpt>
      <trkpt lat="61.6366613639478" lon="8.42670945165551">
        <ele>1277</ele>
        <time>2026-09-16T09:42:40.738Z</time>
      </trkpt>
      <trkpt lat="61.6366256918447" lon="8.42671705406444">
        <ele>1278</ele>
        <time>2026-09-16T09:42:40.738Z</time>
      </trkpt>
      <trkpt lat="61.636343682471" lon="8.42647417277791">
        <ele>1278</ele>
        <time>2026-09-16T09:42:40.738Z</time>
      </trkpt>
      <trkpt lat="61.6361195771157" lon="8.42612427333047">
        <ele>1272</ele>
        <time>2026-09-16T09:42:40.738Z</time>
      </trkpt>
      <trkpt lat="61.6359391565785" lon="8.42574613144584">
        <ele>1266</ele>
        <time>2026-09-16T09:42:40.738Z</time>
      </trkpt>
      <trkpt lat="61.6356945001257" lon="8.4253438139322">
        <ele>1260</ele>
        <time>2026-09-16T09:42:40.738Z</time>
      </trkpt>
      <trkpt lat="61.6356650327419" lon="8.4252932870712">
        <ele>1260</ele>
        <time>2026-09-16T09:42:40.738Z</time>
      </trkpt>
      <trkpt lat="61.6350613358042" lon="8.42417221434713">
        <ele>1242</ele>
        <time>2026-09-16T09:42:40.738Z</time>
      </trkpt>
      <trkpt lat="61.6350416906137" lon="8.42413853119109">
        <ele>1241</ele>
        <time>2026-09-16T09:42:40.738Z</time>
      </trkpt>
      <trkpt lat="61.6346371530841" lon="8.42341055085168">
        <ele>1220</ele>
        <time>2026-09-16T09:42:40.738Z</time>
      </trkpt>
      <trkpt lat="61.6345782169635" lon="8.42330950433709">
        <ele>1217</ele>
        <time>2026-09-16T09:42:40.738Z</time>
      </trkpt>
      <trkpt lat="61.634479989941" lon="8.42314109433115">
        <ele>1215</ele>
        <time>2026-09-16T09:42:40.738Z</time>
      </trkpt>
      <trkpt lat="61.6343139083427" lon="8.42287354205953">
        <ele>1212</ele>
        <time>2026-09-16T09:42:40.738Z</time>
      </trkpt>
      <trkpt lat="61.6342719029707" lon="8.42274995225008">
        <ele>1210</ele>
        <time>2026-09-16T09:42:40.738Z</time>
      </trkpt>
      <trkpt lat="61.6341654011823" lon="8.42222354240599">
        <ele>1204</ele>
        <time>2026-09-16T09:42:40.738Z</time>
      </trkpt>
      <trkpt lat="61.6340499794736" lon="8.42169903813458">
        <ele>1199</ele>
        <time>2026-09-16T09:42:40.738Z</time>
      </trkpt>
      <trkpt lat="61.6339265428831" lon="8.42119518185884">
        <ele>1185</ele>
        <time>2026-09-16T09:42:40.738Z</time>
      </trkpt>
      <trkpt lat="61.6338987517728" lon="8.42099282402031">
        <ele>1180</ele>
        <time>2026-09-16T09:42:40.738Z</time>
      </trkpt>
      <trkpt lat="61.6336963272931" lon="8.41978629445051">
        <ele>1162</ele>
        <time>2026-09-16T09:42:40.738Z</time>
      </trkpt>
      <trkpt lat="61.6336819781418" lon="8.41967574603269">
        <ele>1159</ele>
        <time>2026-09-16T09:42:40.738Z</time>
      </trkpt>
      <trkpt lat="61.6335476706893" lon="8.41894700391372">
        <ele>1145</ele>
        <time>2026-09-16T09:42:40.738Z</time>
      </trkpt>
      <trkpt lat="61.6335287941935" lon="8.4187427481148">
        <ele>1142</ele>
        <time>2026-09-16T09:42:40.738Z</time>
      </trkpt>
      <trkpt lat="61.6334946618644" lon="8.41840920383699">
        <ele>1138</ele>
        <time>2026-09-16T09:42:40.738Z</time>
      </trkpt>
      <trkpt lat="61.6334720263839" lon="8.41794066343609">
        <ele>1133</ele>
        <time>2026-09-16T09:42:40.738Z</time>
      </trkpt>
      <trkpt lat="61.6334305106217" lon="8.41726786970404">
        <ele>1126</ele>
        <time>2026-09-16T09:42:40.738Z</time>
      </trkpt>
      <trkpt lat="61.6334498818501" lon="8.41692290935216">
        <ele>1122</ele>
        <time>2026-09-16T09:42:40.738Z</time>
      </trkpt>
      <trkpt lat="61.6335140511875" lon="8.41564057896456">
        <ele>1111</ele>
        <time>2026-09-16T09:42:40.738Z</time>
      </trkpt>
      <trkpt lat="61.6334985123791" lon="8.41513265418617">
        <ele>1104</ele>
        <time>2026-09-16T09:42:40.738Z</time>
      </trkpt>
      <trkpt lat="61.6333723343035" lon="8.41457261025721">
        <ele>1100</ele>
        <time>2026-09-16T09:42:40.738Z</time>
      </trkpt>
      <trkpt lat="61.6332596017002" lon="8.41410437364297">
        <ele>1093</ele>
        <time>2026-09-16T09:42:40.738Z</time>
      </trkpt>
      <trkpt lat="61.6330781006549" lon="8.41351828071638">
        <ele>1092</ele>
        <time>2026-09-16T09:42:40.738Z</time>
      </trkpt>
      <trkpt lat="61.6330502983311" lon="8.41331593599657">
        <ele>1090</ele>
        <time>2026-09-16T09:42:40.738Z</time>
      </trkpt>
      <trkpt lat="61.6327997379164" lon="8.41223336656248">
        <ele>1086</ele>
        <time>2026-09-16T09:42:40.738Z</time>
      </trkpt>
      <trkpt lat="61.6327899139174" lon="8.41221653005492">
        <ele>1086</ele>
        <time>2026-09-16T09:42:40.738Z</time>
      </trkpt>
      <trkpt lat="61.632752430374" lon="8.41218666602411">
        <ele>1086</ele>
        <time>2026-09-16T09:42:40.738Z</time>
      </trkpt>
      <trkpt lat="61.6327229583558" lon="8.41213615665358">
        <ele>1088</ele>
        <time>2026-09-16T09:42:40.738Z</time>
      </trkpt>
      <trkpt lat="61.6326854747969" lon="8.4121062927811">
        <ele>1088</ele>
        <time>2026-09-16T09:42:40.738Z</time>
      </trkpt>
      <trkpt lat="61.6326560027514" lon="8.41205578359462">
        <ele>1088</ele>
        <time>2026-09-16T09:42:40.738Z</time>
      </trkpt>
      <trkpt lat="61.6326185191771" lon="8.41202591988048">
        <ele>1088</ele>
        <time>2026-09-16T09:42:40.738Z</time>
      </trkpt>
      <trkpt lat="61.6325890471044" lon="8.41197541087804">
        <ele>1088</ele>
        <time>2026-09-16T09:42:40.738Z</time>
      </trkpt>
      <trkpt lat="61.6325515635145" lon="8.41194554732224">
        <ele>1088</ele>
        <time>2026-09-16T09:42:40.738Z</time>
      </trkpt>
      <trkpt lat="61.6325131736495" lon="8.41189694304379">
        <ele>1088</ele>
        <time>2026-09-16T09:42:40.738Z</time>
      </trkpt>
      <trkpt lat="61.6324846078093" lon="8.41186517510637">
        <ele>1088</ele>
        <time>2026-09-16T09:42:40.738Z</time>
      </trkpt>
      <trkpt lat="61.6324471241984" lon="8.41183531177896">
        <ele>1088</ele>
        <time>2026-09-16T09:42:40.738Z</time>
      </trkpt>
      <trkpt lat="61.6324176520613" lon="8.41178480323289">
        <ele>1088</ele>
        <time>2026-09-16T09:42:40.738Z</time>
      </trkpt>
      <trkpt lat="61.6323792621445" lon="8.41173619935817">
        <ele>1088</ele>
        <time>2026-09-16T09:42:40.738Z</time>
      </trkpt>
      <trkpt lat="61.6323417785088" lon="8.41170633628297">
        <ele>1088</ele>
        <time>2026-09-16T09:42:40.738Z</time>
      </trkpt>
      <trkpt lat="61.6323033885669" lon="8.41165773262106">
        <ele>1088</ele>
        <time>2026-09-16T09:42:40.738Z</time>
      </trkpt>
      <trkpt lat="61.6322649986093" lon="8.41160912907808">
        <ele>1088</ele>
        <time>2026-09-16T09:42:40.738Z</time>
      </trkpt>
      <trkpt lat="61.6322364327089" lon="8.411577361652">
        <ele>1088</ele>
        <time>2026-09-16T09:42:40.738Z</time>
      </trkpt>
      <trkpt lat="61.6321989490428" lon="8.41154749889907">
        <ele>1088</ele>
        <time>2026-09-16T09:42:40.738Z</time>
      </trkpt>
      <trkpt lat="61.6321703831297" lon="8.41151573159502">
        <ele>1088</ele>
        <time>2026-09-16T09:42:40.738Z</time>
      </trkpt>
      <trkpt lat="61.6321409108844" lon="8.41146522379733">
        <ele>1088</ele>
        <time>2026-09-16T09:42:40.738Z</time>
      </trkpt>
      <trkpt lat="61.6321034271968" lon="8.41143536126717">
        <ele>1088</ele>
        <time>2026-09-16T09:42:40.738Z</time>
      </trkpt>
      <trkpt lat="61.6320739549242" lon="8.41138485365352">
        <ele>1088</ele>
        <time>2026-09-16T09:42:40.738Z</time>
      </trkpt>
      <trkpt lat="61.6320364712211" lon="8.41135499128168">
        <ele>1088</ele>
        <time>2026-09-16T09:42:40.738Z</time>
      </trkpt>
      <trkpt lat="61.6320069989213" lon="8.41130448385207">
        <ele>1088</ele>
        <time>2026-09-16T09:42:40.738Z</time>
      </trkpt>
      <trkpt lat="61.6319784329572" lon="8.41127271696268">
        <ele>1088</ele>
        <time>2026-09-16T09:42:40.738Z</time>
      </trkpt>
      <trkpt lat="61.6319400428756" lon="8.41122411439298">
        <ele>1088</ele>
        <time>2026-09-16T09:42:40.738Z</time>
      </trkpt>
      <trkpt lat="61.6319114768948" lon="8.4111923476441">
        <ele>1088</ele>
        <time>2026-09-16T09:42:40.738Z</time>
      </trkpt>
      <trkpt lat="61.6318730867872" lon="8.41114374527626">
        <ele>1088</ele>
        <time>2026-09-16T09:42:40.738Z</time>
      </trkpt>
      <trkpt lat="61.6318445207896" lon="8.41111197866788">
        <ele>1088</ele>
        <time>2026-09-16T09:42:40.738Z</time>
      </trkpt>
      <trkpt lat="61.6318061306562" lon="8.41106337650189">
        <ele>1088</ele>
        <time>2026-09-16T09:42:40.738Z</time>
      </trkpt>
      <trkpt lat="61.6317766582572" lon="8.41101286972019">
        <ele>1088</ele>
        <time>2026-09-16T09:42:40.738Z</time>
      </trkpt>
      <trkpt lat="61.6317391744824" lon="8.41098300806988">
        <ele>1088</ele>
        <time>2026-09-16T09:42:40.738Z</time>
      </trkpt>
      <trkpt lat="61.6266006570698" lon="8.40515166876164">
        <ele>1093</ele>
        <time>2026-09-16T09:42:40.738Z</time>
      </trkpt>
    </trkseg>
  </trk>
</gpx>