<?xml version="1.0" encoding="UTF-8"?>
<gpx creator="fabulator:gpx-builder" version="1.1" xmlns="http://www.topografix.com/GPX/1/1" xmlns:xsi="http://www.w3.org/2001/XMLSchema-instance" xsi:schemaLocation="http://www.topografix.com/GPX/1/1 https://www.topografix.com/GPX/1/1/gpx.xsd">
  <metadata>
    <name>Fra Leirvassbu til Spiterstulen </name>
    <copyright author="UT.no">
      <year>2026</year>
      <license>http://creativecommons.org/licenses/by-nc/4.0/deed.no</license>
    </copyright>
    <link href="https://ut.no"></link>
  </metadata>
  <trk>
    <trkseg>
      <trkpt lat="61.6266006570698" lon="8.40515166876164">
        <ele>1093</ele>
        <time>2026-09-16T09:43:15.724Z</time>
      </trkpt>
      <trkpt lat="61.6264570674998" lon="8.40516342789677">
        <ele>1094</ele>
        <time>2026-09-16T09:43:15.724Z</time>
      </trkpt>
      <trkpt lat="61.6262332190541" lon="8.40519234066112">
        <ele>1096</ele>
        <time>2026-09-16T09:43:15.724Z</time>
      </trkpt>
      <trkpt lat="61.6258559562236" lon="8.40521618073862">
        <ele>1098</ele>
        <time>2026-09-16T09:43:15.724Z</time>
      </trkpt>
      <trkpt lat="61.6257935326474" lon="8.40522952223891">
        <ele>1099</ele>
        <time>2026-09-16T09:43:15.724Z</time>
      </trkpt>
      <trkpt lat="61.6250532137449" lon="8.4051984434556">
        <ele>1108</ele>
        <time>2026-09-16T09:43:15.724Z</time>
      </trkpt>
      <trkpt lat="61.6249149132907" lon="8.40513335170372">
        <ele>1108</ele>
        <time>2026-09-16T09:43:15.724Z</time>
      </trkpt>
      <trkpt lat="61.6246383123105" lon="8.40500316983917">
        <ele>1106</ele>
        <time>2026-09-16T09:43:15.724Z</time>
      </trkpt>
      <trkpt lat="61.6242902159414" lon="8.40469897597871">
        <ele>1104</ele>
        <time>2026-09-16T09:43:15.724Z</time>
      </trkpt>
      <trkpt lat="61.6237992820192" lon="8.40423602648972">
        <ele>1100</ele>
        <time>2026-09-16T09:43:15.724Z</time>
      </trkpt>
      <trkpt lat="61.6236074753672" lon="8.40418237770191">
        <ele>1100</ele>
        <time>2026-09-16T09:43:15.724Z</time>
      </trkpt>
      <trkpt lat="61.6235708975628" lon="8.40417126680523">
        <ele>1100</ele>
        <time>2026-09-16T09:43:15.724Z</time>
      </trkpt>
      <trkpt lat="61.6230711998337" lon="8.40389949591654">
        <ele>1099</ele>
        <time>2026-09-16T09:43:15.724Z</time>
      </trkpt>
      <trkpt lat="61.6230060545333" lon="8.40385663429446">
        <ele>1101</ele>
        <time>2026-09-16T09:43:15.724Z</time>
      </trkpt>
      <trkpt lat="61.6227785772476" lon="8.40381061332568">
        <ele>1100</ele>
        <time>2026-09-16T09:43:15.724Z</time>
      </trkpt>
      <trkpt lat="61.6225920588814" lon="8.40368012453437">
        <ele>1101</ele>
        <time>2026-09-16T09:43:15.724Z</time>
      </trkpt>
      <trkpt lat="61.6225822339375" lon="8.40366329617233">
        <ele>1101</ele>
        <time>2026-09-16T09:43:15.724Z</time>
      </trkpt>
      <trkpt lat="61.6222270321142" lon="8.40339851107783">
        <ele>1104</ele>
        <time>2026-09-16T09:43:15.724Z</time>
      </trkpt>
      <trkpt lat="61.6217353433898" lon="8.40310612310561">
        <ele>1104</ele>
        <time>2026-09-16T09:43:15.724Z</time>
      </trkpt>
      <trkpt lat="61.6211364860827" lon="8.40264737704668">
        <ele>1105</ele>
        <time>2026-09-16T09:43:15.724Z</time>
      </trkpt>
      <trkpt lat="61.620887543502" lon="8.40253024587344">
        <ele>1104</ele>
        <time>2026-09-16T09:43:15.724Z</time>
      </trkpt>
      <trkpt lat="61.6204493588951" lon="8.40222644502835">
        <ele>1104</ele>
        <time>2026-09-16T09:43:15.724Z</time>
      </trkpt>
      <trkpt lat="61.6202699418413" lon="8.40205660243202">
        <ele>1104</ele>
        <time>2026-09-16T09:43:15.724Z</time>
      </trkpt>
      <trkpt lat="61.6199558530453" lon="8.40189662528262">
        <ele>1107</ele>
        <time>2026-09-16T09:43:15.724Z</time>
      </trkpt>
      <trkpt lat="61.6194785246557" lon="8.40171476933302">
        <ele>1109</ele>
        <time>2026-09-16T09:43:15.724Z</time>
      </trkpt>
      <trkpt lat="61.6188736270117" lon="8.40150341224207">
        <ele>1109</ele>
        <time>2026-09-16T09:43:15.724Z</time>
      </trkpt>
      <trkpt lat="61.6184301534099" lon="8.40127647812444">
        <ele>1114</ele>
        <time>2026-09-16T09:43:15.724Z</time>
      </trkpt>
      <trkpt lat="61.6180159963558" lon="8.40091080279259">
        <ele>1116</ele>
        <time>2026-09-16T09:43:15.724Z</time>
      </trkpt>
      <trkpt lat="61.6171885874366" lon="8.40019821176532">
        <ele>1117</ele>
        <time>2026-09-16T09:43:15.724Z</time>
      </trkpt>
      <trkpt lat="61.6169101671872" lon="8.40003064080393">
        <ele>1117</ele>
        <time>2026-09-16T09:43:15.724Z</time>
      </trkpt>
      <trkpt lat="61.616863763796" lon="8.40000271259004">
        <ele>1117</ele>
        <time>2026-09-16T09:43:15.724Z</time>
      </trkpt>
      <trkpt lat="61.6162701839949" lon="8.39946726494534">
        <ele>1117</ele>
        <time>2026-09-16T09:43:15.724Z</time>
      </trkpt>
      <trkpt lat="61.6158141585899" lon="8.39916736303258">
        <ele>1118</ele>
        <time>2026-09-16T09:43:15.724Z</time>
      </trkpt>
      <trkpt lat="61.6155553881834" lon="8.39903345442379">
        <ele>1119</ele>
        <time>2026-09-16T09:43:15.724Z</time>
      </trkpt>
      <trkpt lat="61.6152216456094" lon="8.39883988378246">
        <ele>1121</ele>
        <time>2026-09-16T09:43:15.724Z</time>
      </trkpt>
      <trkpt lat="61.6145863601601" lon="8.39855941016511">
        <ele>1125</ele>
        <time>2026-09-16T09:43:15.724Z</time>
      </trkpt>
      <trkpt lat="61.6139956619956" lon="8.39826941237678">
        <ele>1129</ele>
        <time>2026-09-16T09:43:15.724Z</time>
      </trkpt>
      <trkpt lat="61.6137520019774" lon="8.39807551746479">
        <ele>1130</ele>
        <time>2026-09-16T09:43:15.724Z</time>
      </trkpt>
      <trkpt lat="61.6134166049287" lon="8.39803370415722">
        <ele>1134</ele>
        <time>2026-09-16T09:43:15.724Z</time>
      </trkpt>
      <trkpt lat="61.6127787569145" lon="8.39788626664722">
        <ele>1136</ele>
        <time>2026-09-16T09:43:15.724Z</time>
      </trkpt>
      <trkpt lat="61.6125261789501" lon="8.39769428886619">
        <ele>1137</ele>
        <time>2026-09-16T09:43:15.724Z</time>
      </trkpt>
      <trkpt lat="61.6122710396605" lon="8.3976353172834">
        <ele>1137</ele>
        <time>2026-09-16T09:43:15.724Z</time>
      </trkpt>
      <trkpt lat="61.6116672084417" lon="8.39763199213155">
        <ele>1137</ele>
        <time>2026-09-16T09:43:15.724Z</time>
      </trkpt>
      <trkpt lat="61.6113005184369" lon="8.39750226882478">
        <ele>1138</ele>
        <time>2026-09-16T09:43:15.724Z</time>
      </trkpt>
      <trkpt lat="61.6111390947633" lon="8.39751786720206">
        <ele>1139</ele>
        <time>2026-09-16T09:43:15.724Z</time>
      </trkpt>
      <trkpt lat="61.6110677544879" lon="8.39753312298433">
        <ele>1139</ele>
        <time>2026-09-16T09:43:15.724Z</time>
      </trkpt>
      <trkpt lat="61.6102668294246" lon="8.39755302365305">
        <ele>1140</ele>
        <time>2026-09-16T09:43:15.724Z</time>
      </trkpt>
      <trkpt lat="61.6099481961853" lon="8.39729950503287">
        <ele>1140</ele>
        <time>2026-09-16T09:43:15.724Z</time>
      </trkpt>
      <trkpt lat="61.6094459268493" lon="8.39716094322001">
        <ele>1146</ele>
        <time>2026-09-16T09:43:15.724Z</time>
      </trkpt>
      <trkpt lat="61.608941677451" lon="8.39679576665799">
        <ele>1145</ele>
        <time>2026-09-16T09:43:15.724Z</time>
      </trkpt>
      <trkpt lat="61.6084090225516" lon="8.39658803498776">
        <ele>1146</ele>
        <time>2026-09-16T09:43:15.724Z</time>
      </trkpt>
      <trkpt lat="61.6081092953663" lon="8.39653861342545">
        <ele>1147</ele>
        <time>2026-09-16T09:43:15.724Z</time>
      </trkpt>
      <trkpt lat="61.6076410434476" lon="8.39654415076762">
        <ele>1149</ele>
        <time>2026-09-16T09:43:15.724Z</time>
      </trkpt>
      <trkpt lat="61.6071798927131" lon="8.39651033075602">
        <ele>1150</ele>
        <time>2026-09-16T09:43:15.724Z</time>
      </trkpt>
      <trkpt lat="61.6070907174981" lon="8.39652940022169">
        <ele>1151</ele>
        <time>2026-09-16T09:43:15.724Z</time>
      </trkpt>
      <trkpt lat="61.6068954401613" lon="8.39659007733651">
        <ele>1150</ele>
        <time>2026-09-16T09:43:15.724Z</time>
      </trkpt>
      <trkpt lat="61.6066582995695" lon="8.39671646174609">
        <ele>1149</ele>
        <time>2026-09-16T09:43:15.724Z</time>
      </trkpt>
      <trkpt lat="61.6062499095676" lon="8.39684162431878">
        <ele>1150</ele>
        <time>2026-09-16T09:43:15.724Z</time>
      </trkpt>
      <trkpt lat="61.6060751913873" lon="8.39695465673967">
        <ele>1152</ele>
        <time>2026-09-16T09:43:15.724Z</time>
      </trkpt>
      <trkpt lat="61.6057523440813" lon="8.39698585034986">
        <ele>1153</ele>
        <time>2026-09-16T09:43:15.724Z</time>
      </trkpt>
      <trkpt lat="61.605103180264" lon="8.39716248364285">
        <ele>1155</ele>
        <time>2026-09-16T09:43:15.724Z</time>
      </trkpt>
      <trkpt lat="61.6047044522829" lon="8.39711530879589">
        <ele>1157</ele>
        <time>2026-09-16T09:43:15.724Z</time>
      </trkpt>
      <trkpt lat="61.6044735043972" lon="8.39718360280247">
        <ele>1156</ele>
        <time>2026-09-16T09:43:15.724Z</time>
      </trkpt>
      <trkpt lat="61.604238016237" lon="8.39715827991489">
        <ele>1155</ele>
        <time>2026-09-16T09:43:15.724Z</time>
      </trkpt>
      <trkpt lat="61.6037759574468" lon="8.3971057284547">
        <ele>1154</ele>
        <time>2026-09-16T09:43:15.724Z</time>
      </trkpt>
      <trkpt lat="61.6034289185502" lon="8.39700967101098">
        <ele>1155</ele>
        <time>2026-09-16T09:43:15.724Z</time>
      </trkpt>
      <trkpt lat="61.603133731809" lon="8.39705386271741">
        <ele>1156</ele>
        <time>2026-09-16T09:43:15.724Z</time>
      </trkpt>
      <trkpt lat="61.6026385639219" lon="8.39687597777736">
        <ele>1157</ele>
        <time>2026-09-16T09:43:15.724Z</time>
      </trkpt>
      <trkpt lat="61.602286984465" lon="8.39668631587249">
        <ele>1158</ele>
        <time>2026-09-16T09:43:15.724Z</time>
      </trkpt>
      <trkpt lat="61.6021244891278" lon="8.39649406412791">
        <ele>1158</ele>
        <time>2026-09-16T09:43:15.724Z</time>
      </trkpt>
      <trkpt lat="61.6021155716002" lon="8.39649597068312">
        <ele>1158</ele>
        <time>2026-09-16T09:43:15.724Z</time>
      </trkpt>
      <trkpt lat="61.6020691677119" lon="8.39646805980625">
        <ele>1158</ele>
        <time>2026-09-16T09:43:15.724Z</time>
      </trkpt>
      <trkpt lat="61.601937965406" lon="8.39636369934858">
        <ele>1158</ele>
        <time>2026-09-16T09:43:15.724Z</time>
      </trkpt>
      <trkpt lat="61.6016424507995" lon="8.39602965002556">
        <ele>1159</ele>
        <time>2026-09-16T09:43:15.724Z</time>
      </trkpt>
      <trkpt lat="61.6012284477485" lon="8.39585334993406">
        <ele>1160</ele>
        <time>2026-09-16T09:43:15.724Z</time>
      </trkpt>
      <trkpt lat="61.6012195302313" lon="8.39585525660225">
        <ele>1160</ele>
        <time>2026-09-16T09:43:15.724Z</time>
      </trkpt>
      <trkpt lat="61.6006190026457" lon="8.39554860617099">
        <ele>1166</ele>
        <time>2026-09-16T09:43:15.724Z</time>
      </trkpt>
      <trkpt lat="61.6002211826465" lon="8.39552017609492">
        <ele>1168</ele>
        <time>2026-09-16T09:43:15.724Z</time>
      </trkpt>
      <trkpt lat="61.5999982448183" lon="8.39556784281623">
        <ele>1170</ele>
        <time>2026-09-16T09:43:15.724Z</time>
      </trkpt>
      <trkpt lat="61.5995514608579" lon="8.395644453637">
        <ele>1173</ele>
        <time>2026-09-16T09:43:15.724Z</time>
      </trkpt>
      <trkpt lat="61.5990362255562" lon="8.39598158011012">
        <ele>1177</ele>
        <time>2026-09-16T09:43:15.724Z</time>
      </trkpt>
      <trkpt lat="61.5989925461088" lon="8.39600983232489">
        <ele>1178</ele>
        <time>2026-09-16T09:43:15.725Z</time>
      </trkpt>
      <trkpt lat="61.5985879525218" lon="8.39639894915168">
        <ele>1181</ele>
        <time>2026-09-16T09:43:15.725Z</time>
      </trkpt>
      <trkpt lat="61.5984479963217" lon="8.39648560871583">
        <ele>1181</ele>
        <time>2026-09-16T09:43:15.725Z</time>
      </trkpt>
      <trkpt lat="61.5983606371734" lon="8.39654211047472">
        <ele>1182</ele>
        <time>2026-09-16T09:43:15.725Z</time>
      </trkpt>
      <trkpt lat="61.5982679927498" lon="8.39667539623026">
        <ele>1182</ele>
        <time>2026-09-16T09:43:15.725Z</time>
      </trkpt>
      <trkpt lat="61.5976255095563" lon="8.39736121285865">
        <ele>1187</ele>
        <time>2026-09-16T09:43:15.725Z</time>
      </trkpt>
      <trkpt lat="61.5974069485346" lon="8.39731336008987">
        <ele>1188</ele>
        <time>2026-09-16T09:43:15.725Z</time>
      </trkpt>
      <trkpt lat="61.5971607268818" lon="8.39725250683886">
        <ele>1189</ele>
        <time>2026-09-16T09:43:15.725Z</time>
      </trkpt>
      <trkpt lat="61.5967450718107" lon="8.39722786709967">
        <ele>1188</ele>
        <time>2026-09-16T09:43:15.725Z</time>
      </trkpt>
      <trkpt lat="61.5963097656795" lon="8.39716960272142">
        <ele>1188</ele>
        <time>2026-09-16T09:43:15.725Z</time>
      </trkpt>
      <trkpt lat="61.5954095141967" lon="8.39681355783004">
        <ele>1188</ele>
        <time>2026-09-16T09:43:15.725Z</time>
      </trkpt>
      <trkpt lat="61.5951873209264" lon="8.39669084070292">
        <ele>1206</ele>
        <time>2026-09-16T09:43:15.725Z</time>
      </trkpt>
      <trkpt lat="61.5950954214039" lon="8.39665374727103">
        <ele>1207</ele>
        <time>2026-09-16T09:43:15.725Z</time>
      </trkpt>
      <trkpt lat="61.5945900081128" lon="8.39700761546216">
        <ele>1190</ele>
        <time>2026-09-16T09:43:15.725Z</time>
      </trkpt>
      <trkpt lat="61.5943555901396" lon="8.39719009216671">
        <ele>1190</ele>
        <time>2026-09-16T09:43:15.725Z</time>
      </trkpt>
      <trkpt lat="61.5941470166036" lon="8.39734813193236">
        <ele>1191</ele>
        <time>2026-09-16T09:43:15.725Z</time>
      </trkpt>
      <trkpt lat="61.5936133548975" lon="8.39804840648423">
        <ele>1193</ele>
        <time>2026-09-16T09:43:15.725Z</time>
      </trkpt>
      <trkpt lat="61.5931446756244" lon="8.39860239935736">
        <ele>1196</ele>
        <time>2026-09-16T09:43:15.725Z</time>
      </trkpt>
      <trkpt lat="61.5927580675044" lon="8.39917666233374">
        <ele>1197</ele>
        <time>2026-09-16T09:43:15.725Z</time>
      </trkpt>
      <trkpt lat="61.5926057198517" lon="8.39937939877427">
        <ele>1198</ele>
        <time>2026-09-16T09:43:15.725Z</time>
      </trkpt>
      <trkpt lat="61.5923758363417" lon="8.39965542550534">
        <ele>1200</ele>
        <time>2026-09-16T09:43:15.725Z</time>
      </trkpt>
      <trkpt lat="61.5921674176776" lon="8.40000250240544">
        <ele>1205</ele>
        <time>2026-09-16T09:43:15.725Z</time>
      </trkpt>
      <trkpt lat="61.5920756768625" lon="8.40015446611308">
        <ele>1208</ele>
        <time>2026-09-16T09:43:15.725Z</time>
      </trkpt>
      <trkpt lat="61.5917897207553" lon="8.4005748248014">
        <ele>1213</ele>
        <time>2026-09-16T09:43:15.725Z</time>
      </trkpt>
      <trkpt lat="61.591618628143" lon="8.40076264115539">
        <ele>1215</ele>
        <time>2026-09-16T09:43:15.725Z</time>
      </trkpt>
      <trkpt lat="61.5909156373279" lon="8.40057240897839">
        <ele>1215</ele>
        <time>2026-09-16T09:43:15.725Z</time>
      </trkpt>
      <trkpt lat="61.5907576855311" lon="8.40047377915506">
        <ele>1214</ele>
        <time>2026-09-16T09:43:15.725Z</time>
      </trkpt>
      <trkpt lat="61.5906292089919" lon="8.40042558189957">
        <ele>1213</ele>
        <time>2026-09-16T09:43:15.725Z</time>
      </trkpt>
      <trkpt lat="61.5904150289285" lon="8.40028223601125">
        <ele>1212</ele>
        <time>2026-09-16T09:43:15.725Z</time>
      </trkpt>
      <trkpt lat="61.5895995811658" lon="8.40000258825576">
        <ele>1212</ele>
        <time>2026-09-16T09:43:15.725Z</time>
      </trkpt>
      <trkpt lat="61.5895442604439" lon="8.39997658676286">
        <ele>1212</ele>
        <time>2026-09-16T09:43:15.725Z</time>
      </trkpt>
      <trkpt lat="61.589208705773" lon="8.39974572289521">
        <ele>1215</ele>
        <time>2026-09-16T09:43:15.725Z</time>
      </trkpt>
      <trkpt lat="61.589026723427" lon="8.39970895826884">
        <ele>1216</ele>
        <time>2026-09-16T09:43:15.725Z</time>
      </trkpt>
      <trkpt lat="61.5885488030138" lon="8.3998866595664">
        <ele>1218</ele>
        <time>2026-09-16T09:43:15.725Z</time>
      </trkpt>
      <trkpt lat="61.5885309678005" lon="8.39989046857027">
        <ele>1218</ele>
        <time>2026-09-16T09:43:15.725Z</time>
      </trkpt>
      <trkpt lat="61.588301832608" lon="8.39999612609434">
        <ele>1220</ele>
        <time>2026-09-16T09:43:15.725Z</time>
      </trkpt>
      <trkpt lat="61.5882839973902" lon="8.39999993499613">
        <ele>1220</ele>
        <time>2026-09-16T09:43:15.725Z</time>
      </trkpt>
      <trkpt lat="61.5879282005083" lon="8.40009482540134">
        <ele>1223</ele>
        <time>2026-09-16T09:43:15.725Z</time>
      </trkpt>
      <trkpt lat="61.5873663909164" lon="8.40021479974364">
        <ele>1225</ele>
        <time>2026-09-16T09:43:15.725Z</time>
      </trkpt>
      <trkpt lat="61.5869097775901" lon="8.40027449254771">
        <ele>1226</ele>
        <time>2026-09-16T09:43:15.725Z</time>
      </trkpt>
      <trkpt lat="61.5865494430458" lon="8.40027581160623">
        <ele>1228</ele>
        <time>2026-09-16T09:43:15.725Z</time>
      </trkpt>
      <trkpt lat="61.5864468118762" lon="8.40020319540065">
        <ele>1228</ele>
        <time>2026-09-16T09:43:15.725Z</time>
      </trkpt>
      <trkpt lat="61.5861247129718" lon="8.40006400745852">
        <ele>1228</ele>
        <time>2026-09-16T09:43:15.725Z</time>
      </trkpt>
      <trkpt lat="61.5860131640992" lon="8.39999329714374">
        <ele>1228</ele>
        <time>2026-09-16T09:43:15.725Z</time>
      </trkpt>
      <trkpt lat="61.5854375840714" lon="8.39964356153123">
        <ele>1229</ele>
        <time>2026-09-16T09:43:15.725Z</time>
      </trkpt>
      <trkpt lat="61.5852636117831" lon="8.39958618449495">
        <ele>1230</ele>
        <time>2026-09-16T09:43:15.725Z</time>
      </trkpt>
      <trkpt lat="61.5849870079857" lon="8.39945619746636">
        <ele>1230</ele>
        <time>2026-09-16T09:43:15.725Z</time>
      </trkpt>
      <trkpt lat="61.5847952004356" lon="8.39940263085825">
        <ele>1230</ele>
        <time>2026-09-16T09:43:15.725Z</time>
      </trkpt>
      <trkpt lat="61.5840636404983" lon="8.39918075295247">
        <ele>1233</ele>
        <time>2026-09-16T09:43:15.725Z</time>
      </trkpt>
      <trkpt lat="61.5832858356668" lon="8.39911999527187">
        <ele>1235</ele>
        <time>2026-09-16T09:43:15.725Z</time>
      </trkpt>
      <trkpt lat="61.58297265356" lon="8.39897892652948">
        <ele>1235</ele>
        <time>2026-09-16T09:43:15.725Z</time>
      </trkpt>
      <trkpt lat="61.5824496694701" lon="8.39859910445046">
        <ele>1235</ele>
        <time>2026-09-16T09:43:15.725Z</time>
      </trkpt>
      <trkpt lat="61.5822416826194" lon="8.39839777148267">
        <ele>1235</ele>
        <time>2026-09-16T09:43:15.725Z</time>
      </trkpt>
      <trkpt lat="61.5815363942421" lon="8.39760322047249">
        <ele>1236</ele>
        <time>2026-09-16T09:43:15.725Z</time>
      </trkpt>
      <trkpt lat="61.581348964694" lon="8.39745421862676">
        <ele>1236</ele>
        <time>2026-09-16T09:43:15.725Z</time>
      </trkpt>
      <trkpt lat="61.5813302217316" lon="8.39743931853812">
        <ele>1235</ele>
        <time>2026-09-16T09:43:15.725Z</time>
      </trkpt>
      <trkpt lat="61.5811302430891" lon="8.39721738638951">
        <ele>1235</ele>
        <time>2026-09-16T09:43:15.725Z</time>
      </trkpt>
      <trkpt lat="61.5805617590703" lon="8.39682842992041">
        <ele>1236</ele>
        <time>2026-09-16T09:43:15.725Z</time>
      </trkpt>
      <trkpt lat="61.5801120879105" lon="8.39665984077349">
        <ele>1238</ele>
        <time>2026-09-16T09:43:15.725Z</time>
      </trkpt>
      <trkpt lat="61.5800665921972" lon="8.39665065600506">
        <ele>1238</ele>
        <time>2026-09-16T09:43:15.725Z</time>
      </trkpt>
      <trkpt lat="61.579318847833" lon="8.39628111038213">
        <ele>1241</ele>
        <time>2026-09-16T09:43:15.725Z</time>
      </trkpt>
      <trkpt lat="61.5791305090998" lon="8.39611341850012">
        <ele>1241</ele>
        <time>2026-09-16T09:43:15.725Z</time>
      </trkpt>
      <trkpt lat="61.578711804685" lon="8.39565470635305">
        <ele>1242</ele>
        <time>2026-09-16T09:43:15.725Z</time>
      </trkpt>
      <trkpt lat="61.5782716313998" lon="8.39512498675224">
        <ele>1244</ele>
        <time>2026-09-16T09:43:15.725Z</time>
      </trkpt>
      <trkpt lat="61.5778911543771" lon="8.39452582421385">
        <ele>1246</ele>
        <time>2026-09-16T09:43:15.725Z</time>
      </trkpt>
      <trkpt lat="61.5774533713737" lon="8.39367430666682">
        <ele>1246</ele>
        <time>2026-09-16T09:43:15.725Z</time>
      </trkpt>
      <trkpt lat="61.577258671454" lon="8.39337569302823">
        <ele>1247</ele>
        <time>2026-09-16T09:43:15.725Z</time>
      </trkpt>
      <trkpt lat="61.5770279678276" lon="8.39270676242975">
        <ele>1249</ele>
        <time>2026-09-16T09:43:15.725Z</time>
      </trkpt>
      <trkpt lat="61.5767213785888" lon="8.3919595566242">
        <ele>1250</ele>
        <time>2026-09-16T09:43:15.725Z</time>
      </trkpt>
      <trkpt lat="61.5764043879683" lon="8.39155479439173">
        <ele>1253</ele>
        <time>2026-09-16T09:43:15.725Z</time>
      </trkpt>
      <trkpt lat="61.5762044007237" lon="8.39133293418058">
        <ele>1254</ele>
        <time>2026-09-16T09:43:15.725Z</time>
      </trkpt>
      <trkpt lat="61.5759954956912" lon="8.39111298280517">
        <ele>1254</ele>
        <time>2026-09-16T09:43:15.725Z</time>
      </trkpt>
      <trkpt lat="61.5756268154276" lon="8.39075708642275">
        <ele>1256</ele>
        <time>2026-09-16T09:43:15.725Z</time>
      </trkpt>
      <trkpt lat="61.5753876919814" lon="8.39065700046777">
        <ele>1257</ele>
        <time>2026-09-16T09:43:15.725Z</time>
      </trkpt>
      <trkpt lat="61.5752432532433" lon="8.38972399116083">
        <ele>1254</ele>
        <time>2026-09-16T09:43:15.725Z</time>
      </trkpt>
      <trkpt lat="61.5747887355379" lon="8.3881580076963">
        <ele>1250</ele>
        <time>2026-09-16T09:43:15.725Z</time>
      </trkpt>
      <trkpt lat="61.5746519007954" lon="8.38775258136777">
        <ele>1251</ele>
        <time>2026-09-16T09:43:15.725Z</time>
      </trkpt>
      <trkpt lat="61.5743593091247" lon="8.38673789441889">
        <ele>1251</ele>
        <time>2026-09-16T09:43:15.725Z</time>
      </trkpt>
      <trkpt lat="61.5742153714933" lon="8.38637179667227">
        <ele>1251</ele>
        <time>2026-09-16T09:43:15.725Z</time>
      </trkpt>
      <trkpt lat="61.5741493127131" lon="8.38631032895777">
        <ele>1251</ele>
        <time>2026-09-16T09:43:15.725Z</time>
      </trkpt>
      <trkpt lat="61.5740546831869" lon="8.38621717422556">
        <ele>1252</ele>
        <time>2026-09-16T09:43:15.725Z</time>
      </trkpt>
      <trkpt lat="61.5739502269201" lon="8.38610722287238">
        <ele>1253</ele>
        <time>2026-09-16T09:43:15.725Z</time>
      </trkpt>
      <trkpt lat="61.5737546021797" lon="8.38578998591333">
        <ele>1254</ele>
        <time>2026-09-16T09:43:15.725Z</time>
      </trkpt>
      <trkpt lat="61.5735240400371" lon="8.38531013756049">
        <ele>1257</ele>
        <time>2026-09-16T09:43:15.725Z</time>
      </trkpt>
      <trkpt lat="61.5734436068918" lon="8.38513835612153">
        <ele>1258</ele>
        <time>2026-09-16T09:43:15.725Z</time>
      </trkpt>
      <trkpt lat="61.5732845589473" lon="8.38483220396668">
        <ele>1258</ele>
        <time>2026-09-16T09:43:15.725Z</time>
      </trkpt>
      <trkpt lat="61.5732443421165" lon="8.38474631441988">
        <ele>1258</ele>
        <time>2026-09-16T09:43:15.725Z</time>
      </trkpt>
      <trkpt lat="61.5731933888784" lon="8.38462492482931">
        <ele>1258</ele>
        <time>2026-09-16T09:43:15.725Z</time>
      </trkpt>
      <trkpt lat="61.5731326086667" lon="8.38448673941738">
        <ele>1258</ele>
        <time>2026-09-16T09:43:15.725Z</time>
      </trkpt>
      <trkpt lat="61.5731120453901" lon="8.38443444309929">
        <ele>1258</ele>
        <time>2026-09-16T09:43:15.725Z</time>
      </trkpt>
      <trkpt lat="61.5730610918884" lon="8.38431305454416">
        <ele>1258</ele>
        <time>2026-09-16T09:43:15.725Z</time>
      </trkpt>
      <trkpt lat="61.5730199651892" lon="8.38420846245241">
        <ele>1258</ele>
        <time>2026-09-16T09:43:15.725Z</time>
      </trkpt>
      <trkpt lat="61.5728225171127" lon="8.38385383950822">
        <ele>1257</ele>
        <time>2026-09-16T09:43:15.725Z</time>
      </trkpt>
      <trkpt lat="61.5726481815305" lon="8.3834186828668">
        <ele>1256</ele>
        <time>2026-09-16T09:43:15.725Z</time>
      </trkpt>
      <trkpt lat="61.5726187005354" lon="8.38336829606428">
        <ele>1256</ele>
        <time>2026-09-16T09:43:15.725Z</time>
      </trkpt>
      <trkpt lat="61.5723355361568" lon="8.38291863531233">
        <ele>1256</ele>
        <time>2026-09-16T09:43:15.725Z</time>
      </trkpt>
      <trkpt lat="61.5721890399134" lon="8.38268541042372">
        <ele>1257</ele>
        <time>2026-09-16T09:43:15.725Z</time>
      </trkpt>
      <trkpt lat="61.5719550090801" lon="8.38231973640459">
        <ele>1259</ele>
        <time>2026-09-16T09:43:15.725Z</time>
      </trkpt>
      <trkpt lat="61.5718727527201" lon="8.38211056527344">
        <ele>1259</ele>
        <time>2026-09-16T09:43:15.725Z</time>
      </trkpt>
      <trkpt lat="61.5715564632617" lon="8.38153573181484">
        <ele>1260</ele>
        <time>2026-09-16T09:43:15.725Z</time>
      </trkpt>
      <trkpt lat="61.571464378527" lon="8.38130977114879">
        <ele>1263</ele>
        <time>2026-09-16T09:43:15.725Z</time>
      </trkpt>
      <trkpt lat="61.5710685573764" lon="8.38058189952419">
        <ele>1267</ele>
        <time>2026-09-16T09:43:15.725Z</time>
      </trkpt>
      <trkpt lat="61.5709444422928" lon="8.38043838990027">
        <ele>1268</ele>
        <time>2026-09-16T09:43:15.725Z</time>
      </trkpt>
      <trkpt lat="61.570851261985" lon="8.38000480200652">
        <ele>1269</ele>
        <time>2026-09-16T09:43:15.725Z</time>
      </trkpt>
      <trkpt lat="61.5706497935163" lon="8.37919755899641">
        <ele>1269</ele>
        <time>2026-09-16T09:43:15.725Z</time>
      </trkpt>
      <trkpt lat="61.5704323065882" lon="8.37843154930384">
        <ele>1268</ele>
        <time>2026-09-16T09:43:15.725Z</time>
      </trkpt>
      <trkpt lat="61.570237925439" lon="8.37758501458306">
        <ele>1267</ele>
        <time>2026-09-16T09:43:15.725Z</time>
      </trkpt>
      <trkpt lat="61.5702066215119" lon="8.37749723345904">
        <ele>1267</ele>
        <time>2026-09-16T09:43:15.725Z</time>
      </trkpt>
      <trkpt lat="61.569971479143" lon="8.37692399332559">
        <ele>1268</ele>
        <time>2026-09-16T09:43:15.725Z</time>
      </trkpt>
      <trkpt lat="61.5697514370581" lon="8.3762908376739">
        <ele>1268</ele>
        <time>2026-09-16T09:43:15.725Z</time>
      </trkpt>
      <trkpt lat="61.5693988853076" lon="8.37515697303508">
        <ele>1267</ele>
        <time>2026-09-16T09:43:15.725Z</time>
      </trkpt>
      <trkpt lat="61.5689602195846" lon="8.37355028095201">
        <ele>1268</ele>
        <time>2026-09-16T09:43:15.725Z</time>
      </trkpt>
      <trkpt lat="61.5686569811899" lon="8.37268934560874">
        <ele>1269</ele>
        <time>2026-09-16T09:43:15.725Z</time>
      </trkpt>
      <trkpt lat="61.5684106901219" lon="8.37170284698405">
        <ele>1271</ele>
        <time>2026-09-16T09:43:15.725Z</time>
      </trkpt>
      <trkpt lat="61.5683236661021" lon="8.37121130941368">
        <ele>1271</ele>
        <time>2026-09-16T09:43:15.725Z</time>
      </trkpt>
      <trkpt lat="61.5680483954267" lon="8.36981533810528">
        <ele>1272</ele>
        <time>2026-09-16T09:43:15.725Z</time>
      </trkpt>
      <trkpt lat="61.5679023928987" lon="8.36922308061262">
        <ele>1271</ele>
        <time>2026-09-16T09:43:15.725Z</time>
      </trkpt>
      <trkpt lat="61.5677028854561" lon="8.36864229975316">
        <ele>1272</ele>
        <time>2026-09-16T09:43:15.725Z</time>
      </trkpt>
      <trkpt lat="61.5672523855096" lon="8.36771854233718">
        <ele>1274</ele>
        <time>2026-09-16T09:43:15.725Z</time>
      </trkpt>
      <trkpt lat="61.5669449555883" lon="8.36714203024752">
        <ele>1276</ele>
        <time>2026-09-16T09:43:15.725Z</time>
      </trkpt>
      <trkpt lat="61.5666880874014" lon="8.36630905156898">
        <ele>1276</ele>
        <time>2026-09-16T09:43:15.725Z</time>
      </trkpt>
      <trkpt lat="61.5665247410738" lon="8.36536155183522">
        <ele>1276</ele>
        <time>2026-09-16T09:43:15.725Z</time>
      </trkpt>
      <trkpt lat="61.5665030546323" lon="8.36510167567776">
        <ele>1275</ele>
        <time>2026-09-16T09:43:15.725Z</time>
      </trkpt>
      <trkpt lat="61.5663575340554" lon="8.36415036243383">
        <ele>1276</ele>
        <time>2026-09-16T09:43:15.725Z</time>
      </trkpt>
      <trkpt lat="61.5662188062685" lon="8.36370775671879">
        <ele>1276</ele>
        <time>2026-09-16T09:43:15.725Z</time>
      </trkpt>
      <trkpt lat="61.5658051440978" lon="8.36224715951837">
        <ele>1277</ele>
        <time>2026-09-16T09:43:15.725Z</time>
      </trkpt>
      <trkpt lat="61.5655409459583" lon="8.36126466556959">
        <ele>1282</ele>
        <time>2026-09-16T09:43:15.725Z</time>
      </trkpt>
      <trkpt lat="61.5653037023793" lon="8.36046534351527">
        <ele>1281</ele>
        <time>2026-09-16T09:43:15.725Z</time>
      </trkpt>
      <trkpt lat="61.5651185528636" lon="8.35999494391214">
        <ele>1281</ele>
        <time>2026-09-16T09:43:15.725Z</time>
      </trkpt>
      <trkpt lat="61.5649226591488" lon="8.35948906811856">
        <ele>1281</ele>
        <time>2026-09-16T09:43:15.725Z</time>
      </trkpt>
      <trkpt lat="61.56456218204" lon="8.35856508125689">
        <ele>1285</ele>
        <time>2026-09-16T09:43:15.725Z</time>
      </trkpt>
      <trkpt lat="61.5640380266108" lon="8.35724171023189">
        <ele>1287</ele>
        <time>2026-09-16T09:43:15.725Z</time>
      </trkpt>
      <trkpt lat="61.5637232485314" lon="8.35651578512112">
        <ele>1287</ele>
        <time>2026-09-16T09:43:15.725Z</time>
      </trkpt>
      <trkpt lat="61.5634228637941" lon="8.35590014155386">
        <ele>1289</ele>
        <time>2026-09-16T09:43:15.725Z</time>
      </trkpt>
      <trkpt lat="61.563014125477" lon="8.3549110316172">
        <ele>1292</ele>
        <time>2026-09-16T09:43:15.725Z</time>
      </trkpt>
      <trkpt lat="61.5620436562659" lon="8.35330582091306">
        <ele>1302</ele>
        <time>2026-09-16T09:43:15.725Z</time>
      </trkpt>
      <trkpt lat="61.5616040233924" lon="8.35260680576831">
        <ele>1306</ele>
        <time>2026-09-16T09:43:15.725Z</time>
      </trkpt>
      <trkpt lat="61.5614439924562" lon="8.3522822427575">
        <ele>1308</ele>
        <time>2026-09-16T09:43:15.725Z</time>
      </trkpt>
      <trkpt lat="61.5604883619851" lon="8.3504284100969">
        <ele>1317</ele>
        <time>2026-09-16T09:43:15.725Z</time>
      </trkpt>
      <trkpt lat="61.5602782577008" lon="8.35000128346288">
        <ele>1320</ele>
        <time>2026-09-16T09:43:15.725Z</time>
      </trkpt>
      <trkpt lat="61.5601280518445" lon="8.34969352587175">
        <ele>1322</ele>
        <time>2026-09-16T09:43:15.725Z</time>
      </trkpt>
      <trkpt lat="61.5598884525046" lon="8.34921607561509">
        <ele>1325</ele>
        <time>2026-09-16T09:43:15.725Z</time>
      </trkpt>
      <trkpt lat="61.5595050433849" lon="8.34856174794432">
        <ele>1329</ele>
        <time>2026-09-16T09:43:15.725Z</time>
      </trkpt>
      <trkpt lat="61.5594755502547" lon="8.34851141571318">
        <ele>1330</ele>
        <time>2026-09-16T09:43:15.725Z</time>
      </trkpt>
      <trkpt lat="61.5589270652191" lon="8.3477981430061">
        <ele>1335</ele>
        <time>2026-09-16T09:43:15.725Z</time>
      </trkpt>
      <trkpt lat="61.5583383374184" lon="8.34699909623544">
        <ele>1342</ele>
        <time>2026-09-16T09:43:15.725Z</time>
      </trkpt>
      <trkpt lat="61.5582910103793" lon="8.34695260194016">
        <ele>1342</ele>
        <time>2026-09-16T09:43:15.725Z</time>
      </trkpt>
      <trkpt lat="61.5580998729628" lon="8.34672923926449">
        <ele>1344</ele>
        <time>2026-09-16T09:43:15.725Z</time>
      </trkpt>
      <trkpt lat="61.5578513472991" lon="8.34625376030886">
        <ele>1349</ele>
        <time>2026-09-16T09:43:15.725Z</time>
      </trkpt>
      <trkpt lat="61.5575991613053" lon="8.34570351655596">
        <ele>1351</ele>
        <time>2026-09-16T09:43:15.725Z</time>
      </trkpt>
      <trkpt lat="61.5575310258248" lon="8.34541593319955">
        <ele>1352</ele>
        <time>2026-09-16T09:43:15.725Z</time>
      </trkpt>
      <trkpt lat="61.5573698327633" lon="8.34488390969559">
        <ele>1354</ele>
        <time>2026-09-16T09:43:15.725Z</time>
      </trkpt>
      <trkpt lat="61.5570190936259" lon="8.34397709331029">
        <ele>1357</ele>
        <time>2026-09-16T09:43:15.725Z</time>
      </trkpt>
      <trkpt lat="61.5566345123482" lon="8.3431153555134">
        <ele>1358</ele>
        <time>2026-09-16T09:43:15.725Z</time>
      </trkpt>
      <trkpt lat="61.5563395614971" lon="8.34261213550122">
        <ele>1358</ele>
        <time>2026-09-16T09:43:15.725Z</time>
      </trkpt>
      <trkpt lat="61.5562734847519" lon="8.34255079540571">
        <ele>1358</ele>
        <time>2026-09-16T09:43:15.725Z</time>
      </trkpt>
      <trkpt lat="61.5562163245932" lon="8.34248753715806">
        <ele>1359</ele>
        <time>2026-09-16T09:43:15.725Z</time>
      </trkpt>
      <trkpt lat="61.556169911284" lon="8.34245974494561">
        <ele>1359</ele>
        <time>2026-09-16T09:43:15.725Z</time>
      </trkpt>
      <trkpt lat="61.5559911092944" lon="8.34212043599964">
        <ele>1358</ele>
        <time>2026-09-16T09:43:15.725Z</time>
      </trkpt>
      <trkpt lat="61.555488091668" lon="8.34141645322685">
        <ele>1358</ele>
        <time>2026-09-16T09:43:15.725Z</time>
      </trkpt>
      <trkpt lat="61.5548670873024" lon="8.3405112235694">
        <ele>1361</ele>
        <time>2026-09-16T09:43:15.725Z</time>
      </trkpt>
      <trkpt lat="61.5547616818185" lon="8.34038280146849">
        <ele>1361</ele>
        <time>2026-09-16T09:43:15.725Z</time>
      </trkpt>
      <trkpt lat="61.5545892831029" lon="8.34017435725372">
        <ele>1362</ele>
        <time>2026-09-16T09:43:15.725Z</time>
      </trkpt>
      <trkpt lat="61.5542488239187" lon="8.33966210234461">
        <ele>1365</ele>
        <time>2026-09-16T09:43:15.725Z</time>
      </trkpt>
      <trkpt lat="61.5539554532513" lon="8.33900750887598">
        <ele>1365</ele>
        <time>2026-09-16T09:43:15.725Z</time>
      </trkpt>
      <trkpt lat="61.5537263267209" lon="8.33837687304591">
        <ele>1365</ele>
        <time>2026-09-16T09:43:15.725Z</time>
      </trkpt>
      <trkpt lat="61.5535936886447" lon="8.33787657414541">
        <ele>1366</ele>
        <time>2026-09-16T09:43:15.725Z</time>
      </trkpt>
      <trkpt lat="61.5534951247057" lon="8.33752004315049">
        <ele>1364</ele>
        <time>2026-09-16T09:43:15.725Z</time>
      </trkpt>
      <trkpt lat="61.5533039204844" lon="8.33656017618991">
        <ele>1370</ele>
        <time>2026-09-16T09:43:15.725Z</time>
      </trkpt>
      <trkpt lat="61.5532330186659" lon="8.33621658307015">
        <ele>1370</ele>
        <time>2026-09-16T09:43:15.725Z</time>
      </trkpt>
      <trkpt lat="61.5531428793074" lon="8.33548050067424">
        <ele>1370</ele>
        <time>2026-09-16T09:43:15.725Z</time>
      </trkpt>
      <trkpt lat="61.5529059169356" lon="8.33432275133972">
        <ele>1375</ele>
        <time>2026-09-16T09:43:15.725Z</time>
      </trkpt>
      <trkpt lat="61.5528629212688" lon="8.33418091473744">
        <ele>1375</ele>
        <time>2026-09-16T09:43:15.725Z</time>
      </trkpt>
      <trkpt lat="61.5528306744253" lon="8.33407453754759">
        <ele>1375</ele>
        <time>2026-09-16T09:43:15.725Z</time>
      </trkpt>
      <trkpt lat="61.5525866167799" lon="8.33295611128008">
        <ele>1376</ele>
        <time>2026-09-16T09:43:15.725Z</time>
      </trkpt>
      <trkpt lat="61.5523178829263" lon="8.33206966042765">
        <ele>1379</ele>
        <time>2026-09-16T09:43:15.725Z</time>
      </trkpt>
      <trkpt lat="61.5521932222048" lon="8.3315488018012">
        <ele>1382</ele>
        <time>2026-09-16T09:43:15.725Z</time>
      </trkpt>
      <trkpt lat="61.5521932222048" lon="8.3315488018012">
        <ele>1382</ele>
        <time>2026-09-16T09:43:15.725Z</time>
      </trkpt>
      <trkpt lat="61.5520024780453" lon="8.33096664027057">
        <ele>1388</ele>
        <time>2026-09-16T09:43:15.725Z</time>
      </trkpt>
      <trkpt lat="61.5516993963715" lon="8.32974766590658">
        <ele>1400</ele>
        <time>2026-09-16T09:43:15.725Z</time>
      </trkpt>
      <trkpt lat="61.5516483965729" lon="8.32962645200977">
        <ele>1401</ele>
        <time>2026-09-16T09:43:15.725Z</time>
      </trkpt>
      <trkpt lat="61.5516063130523" lon="8.32950331675089">
        <ele>1402</ele>
        <time>2026-09-16T09:43:15.725Z</time>
      </trkpt>
      <trkpt lat="61.5515605618801" lon="8.32930542644992">
        <ele>1404</ele>
        <time>2026-09-16T09:43:15.725Z</time>
      </trkpt>
      <trkpt lat="61.5511289686087" lon="8.32803864207922">
        <ele>1419</ele>
        <time>2026-09-16T09:43:15.725Z</time>
      </trkpt>
      <trkpt lat="61.5510672168482" lon="8.32788197845119">
        <ele>1421</ele>
        <time>2026-09-16T09:43:15.725Z</time>
      </trkpt>
      <trkpt lat="61.5509222116079" lon="8.32749774403698">
        <ele>1428</ele>
        <time>2026-09-16T09:43:15.725Z</time>
      </trkpt>
      <trkpt lat="61.5506500306873" lon="8.32672544110613">
        <ele>1434</ele>
        <time>2026-09-16T09:43:15.725Z</time>
      </trkpt>
      <trkpt lat="61.5505166905087" lon="8.32639535907974">
        <ele>1439</ele>
        <time>2026-09-16T09:43:15.725Z</time>
      </trkpt>
      <trkpt lat="61.5505077741835" lon="8.32639728164638">
        <ele>1439</ele>
        <time>2026-09-16T09:43:15.725Z</time>
      </trkpt>
      <trkpt lat="61.5503922658888" lon="8.3260633572556">
        <ele>1444</ele>
        <time>2026-09-16T09:43:15.725Z</time>
      </trkpt>
      <trkpt lat="61.5500027313505" lon="8.32491978885055">
        <ele>1455</ele>
        <time>2026-09-16T09:43:15.725Z</time>
      </trkpt>
      <trkpt lat="61.5500027313505" lon="8.32491978885055">
        <ele>1455</ele>
        <time>2026-09-16T09:43:15.725Z</time>
      </trkpt>
      <trkpt lat="61.5498979709198" lon="8.32462132780513">
        <ele>1459</ele>
        <time>2026-09-16T09:43:15.725Z</time>
      </trkpt>
      <trkpt lat="61.5496676029131" lon="8.323783397477">
        <ele>1465</ele>
        <time>2026-09-16T09:43:15.725Z</time>
      </trkpt>
      <trkpt lat="61.5495518278588" lon="8.32326069464212">
        <ele>1469</ele>
        <time>2026-09-16T09:43:15.725Z</time>
      </trkpt>
      <trkpt lat="61.5493451849553" lon="8.32217215548606">
        <ele>1474</ele>
        <time>2026-09-16T09:43:15.725Z</time>
      </trkpt>
      <trkpt lat="61.5493032245225" lon="8.32150133959536">
        <ele>1478</ele>
        <time>2026-09-16T09:43:15.725Z</time>
      </trkpt>
      <trkpt lat="61.5492925996162" lon="8.32091818930959">
        <ele>1480</ele>
        <time>2026-09-16T09:43:15.725Z</time>
      </trkpt>
      <trkpt lat="61.5492902350082" lon="8.32050322380365">
        <ele>1480</ele>
        <time>2026-09-16T09:43:15.725Z</time>
      </trkpt>
      <trkpt lat="61.549264915013" lon="8.31962108072557">
        <ele>1482</ele>
        <time>2026-09-16T09:43:15.725Z</time>
      </trkpt>
      <trkpt lat="61.5491916020438" lon="8.31886260948207">
        <ele>1484</ele>
        <time>2026-09-16T09:43:15.725Z</time>
      </trkpt>
      <trkpt lat="61.5490933731714" lon="8.31814729043757">
        <ele>1486</ele>
        <time>2026-09-16T09:43:15.725Z</time>
      </trkpt>
      <trkpt lat="61.5490363161864" lon="8.31753639730034">
        <ele>1487</ele>
        <time>2026-09-16T09:43:15.725Z</time>
      </trkpt>
      <trkpt lat="61.5489906587922" lon="8.31679084848565">
        <ele>1487</ele>
        <time>2026-09-16T09:43:15.725Z</time>
      </trkpt>
      <trkpt lat="61.5488769056469" lon="8.31521017596623">
        <ele>1486</ele>
        <time>2026-09-16T09:43:15.725Z</time>
      </trkpt>
      <trkpt lat="61.54874805915" lon="8.31368942800567">
        <ele>1481</ele>
        <time>2026-09-16T09:43:15.725Z</time>
      </trkpt>
      <trkpt lat="61.5487552331435" lon="8.31310244045575">
        <ele>1480</ele>
        <time>2026-09-16T09:43:15.725Z</time>
      </trkpt>
      <trkpt lat="61.5487741697205" lon="8.31202189753695">
        <ele>1478</ele>
        <time>2026-09-16T09:43:15.725Z</time>
      </trkpt>
      <trkpt lat="61.5487699395248" lon="8.31156956837227">
        <ele>1477</ele>
        <time>2026-09-16T09:43:15.725Z</time>
      </trkpt>
      <trkpt lat="61.548835839162" lon="8.3108943465096">
        <ele>1475</ele>
        <time>2026-09-16T09:43:15.725Z</time>
      </trkpt>
      <trkpt lat="61.5489485160643" lon="8.30988796120902">
        <ele>1472</ele>
        <time>2026-09-16T09:43:15.725Z</time>
      </trkpt>
      <trkpt lat="61.5491134809862" lon="8.30866252420446">
        <ele>1468</ele>
        <time>2026-09-16T09:43:15.725Z</time>
      </trkpt>
      <trkpt lat="61.5491950763342" lon="8.3077572670584">
        <ele>1487</ele>
        <time>2026-09-16T09:43:15.725Z</time>
      </trkpt>
      <trkpt lat="61.5491942285345" lon="8.3071908858184">
        <ele>1487</ele>
        <time>2026-09-16T09:43:15.725Z</time>
      </trkpt>
      <trkpt lat="61.5491598380359" lon="8.30685838380171">
        <ele>1487</ele>
        <time>2026-09-16T09:43:15.725Z</time>
      </trkpt>
      <trkpt lat="61.5490093860561" lon="8.30526677401336">
        <ele>1488</ele>
        <time>2026-09-16T09:43:15.725Z</time>
      </trkpt>
      <trkpt lat="61.548899122894" lon="8.30430858487573">
        <ele>1487</ele>
        <time>2026-09-16T09:43:15.725Z</time>
      </trkpt>
      <trkpt lat="61.548845109778" lon="8.30339488736045">
        <ele>1466</ele>
        <time>2026-09-16T09:43:15.725Z</time>
      </trkpt>
      <trkpt lat="61.5487874590786" lon="8.30185876268858">
        <ele>1465</ele>
        <time>2026-09-16T09:43:15.725Z</time>
      </trkpt>
      <trkpt lat="61.5487140933705" lon="8.30055266680188">
        <ele>1465</ele>
        <time>2026-09-16T09:43:15.725Z</time>
      </trkpt>
      <trkpt lat="61.5487052207606" lon="8.30000691243123">
        <ele>1485</ele>
        <time>2026-09-16T09:43:15.725Z</time>
      </trkpt>
      <trkpt lat="61.5486914073394" lon="8.29972662248755">
        <ele>1485</ele>
        <time>2026-09-16T09:43:15.725Z</time>
      </trkpt>
      <trkpt lat="61.5487050060837" lon="8.29872275450301">
        <ele>1462</ele>
        <time>2026-09-16T09:43:15.725Z</time>
      </trkpt>
      <trkpt lat="61.5488105190178" lon="8.29775563751674">
        <ele>1462</ele>
        <time>2026-09-16T09:43:15.725Z</time>
      </trkpt>
      <trkpt lat="61.5488855623624" lon="8.29726724973846">
        <ele>1462</ele>
        <time>2026-09-16T09:43:15.725Z</time>
      </trkpt>
      <trkpt lat="61.5491592448854" lon="8.2960559535421">
        <ele>1460</ele>
        <time>2026-09-16T09:43:15.725Z</time>
      </trkpt>
      <trkpt lat="61.5492213567133" lon="8.29585364260098">
        <ele>1459</ele>
        <time>2026-09-16T09:43:15.725Z</time>
      </trkpt>
      <trkpt lat="61.5495291463871" lon="8.29478601699133">
        <ele>1457</ele>
        <time>2026-09-16T09:43:15.725Z</time>
      </trkpt>
      <trkpt lat="61.5497409993409" lon="8.29396578969098">
        <ele>1453</ele>
        <time>2026-09-16T09:43:15.725Z</time>
      </trkpt>
      <trkpt lat="61.5499909729344" lon="8.29300508549535">
        <ele>1451</ele>
        <time>2026-09-16T09:43:15.725Z</time>
      </trkpt>
      <trkpt lat="61.5499980449555" lon="8.29296578036627">
        <ele>1451</ele>
        <time>2026-09-16T09:43:15.725Z</time>
      </trkpt>
      <trkpt lat="61.5501213368688" lon="8.29254244814451">
        <ele>1450</ele>
        <time>2026-09-16T09:43:15.725Z</time>
      </trkpt>
      <trkpt lat="61.5502178803178" lon="8.2921249097257">
        <ele>1451</ele>
        <time>2026-09-16T09:43:15.725Z</time>
      </trkpt>
      <trkpt lat="61.5505551578721" lon="8.2905597616792">
        <ele>1452</ele>
        <time>2026-09-16T09:43:15.725Z</time>
      </trkpt>
      <trkpt lat="61.5507131831846" lon="8.2895622767984">
        <ele>1456</ele>
        <time>2026-09-16T09:43:15.725Z</time>
      </trkpt>
      <trkpt lat="61.5508585955512" lon="8.28849196815579">
        <ele>1459</ele>
        <time>2026-09-16T09:43:15.725Z</time>
      </trkpt>
      <trkpt lat="61.5508798012776" lon="8.28782632697675">
        <ele>1456</ele>
        <time>2026-09-16T09:43:15.725Z</time>
      </trkpt>
      <trkpt lat="61.5508459755957" lon="8.28732371641234">
        <ele>1455</ele>
        <time>2026-09-16T09:43:15.725Z</time>
      </trkpt>
      <trkpt lat="61.5508041551685" lon="8.28684172776009">
        <ele>1452</ele>
        <time>2026-09-16T09:43:15.725Z</time>
      </trkpt>
      <trkpt lat="61.5506623849731" lon="8.28524821160086">
        <ele>1453</ele>
        <time>2026-09-16T09:43:15.725Z</time>
      </trkpt>
      <trkpt lat="61.5505658265713" lon="8.2845703496777">
        <ele>1450</ele>
        <time>2026-09-16T09:43:15.725Z</time>
      </trkpt>
      <trkpt lat="61.5503643910339" lon="8.28304646186243">
        <ele>1451</ele>
        <time>2026-09-16T09:43:15.725Z</time>
      </trkpt>
      <trkpt lat="61.5502865459553" lon="8.28183572232345">
        <ele>1449</ele>
        <time>2026-09-16T09:43:15.725Z</time>
      </trkpt>
      <trkpt lat="61.5502739041817" lon="8.28121520547207">
        <ele>1448</ele>
        <time>2026-09-16T09:43:15.725Z</time>
      </trkpt>
      <trkpt lat="61.5501616252492" lon="8.28021970154749">
        <ele>1446</ele>
        <time>2026-09-16T09:43:15.725Z</time>
      </trkpt>
      <trkpt lat="61.5500349223838" lon="8.27966172769995">
        <ele>1445</ele>
        <time>2026-09-16T09:43:15.725Z</time>
      </trkpt>
      <trkpt lat="61.5500026339054" lon="8.27955541945902">
        <ele>1445</ele>
        <time>2026-09-16T09:43:15.725Z</time>
      </trkpt>
      <trkpt lat="61.5497274160907" lon="8.27872751977952">
        <ele>1446</ele>
        <time>2026-09-16T09:43:15.725Z</time>
      </trkpt>
      <trkpt lat="61.5496609899987" lon="8.2784775361196">
        <ele>1448</ele>
        <time>2026-09-16T09:43:15.725Z</time>
      </trkpt>
      <trkpt lat="61.5496289780256" lon="8.2780123290458">
        <ele>1448</ele>
        <time>2026-09-16T09:43:15.725Z</time>
      </trkpt>
      <trkpt lat="61.5496322516088" lon="8.27680288880134">
        <ele>1447</ele>
        <time>2026-09-16T09:43:15.725Z</time>
      </trkpt>
      <trkpt lat="61.5496219778984" lon="8.27550195794738">
        <ele>1447</ele>
        <time>2026-09-16T09:43:15.725Z</time>
      </trkpt>
      <trkpt lat="61.5496164324356" lon="8.27538984427528">
        <ele>1447</ele>
        <time>2026-09-16T09:43:15.725Z</time>
      </trkpt>
      <trkpt lat="61.5495631500532" lon="8.27449487392434">
        <ele>1447</ele>
        <time>2026-09-16T09:43:15.725Z</time>
      </trkpt>
      <trkpt lat="61.5496352716349" lon="8.27340267254175">
        <ele>1444</ele>
        <time>2026-09-16T09:43:15.725Z</time>
      </trkpt>
      <trkpt lat="61.549740340378" lon="8.27279435332786">
        <ele>1443</ele>
        <time>2026-09-16T09:43:15.725Z</time>
      </trkpt>
      <trkpt lat="61.5499972279677" lon="8.27179417829062">
        <ele>1440</ele>
        <time>2026-09-16T09:43:15.725Z</time>
      </trkpt>
      <trkpt lat="61.5499963032198" lon="8.27177549259256">
        <ele>1440</ele>
        <time>2026-09-16T09:43:15.725Z</time>
      </trkpt>
      <trkpt lat="61.550198508141" lon="8.27112715320152">
        <ele>1439</ele>
        <time>2026-09-16T09:43:15.725Z</time>
      </trkpt>
      <trkpt lat="61.550198508141" lon="8.27112715320152">
        <ele>1439</ele>
        <time>2026-09-16T09:43:15.725Z</time>
      </trkpt>
      <trkpt lat="61.550448317723" lon="8.27016626060357">
        <ele>1436</ele>
        <time>2026-09-16T09:43:15.725Z</time>
      </trkpt>
      <trkpt lat="61.5507844977418" lon="8.26912990471895">
        <ele>1430</ele>
        <time>2026-09-16T09:43:15.725Z</time>
      </trkpt>
      <trkpt lat="61.5510708790181" lon="8.26817990741558">
        <ele>1428</ele>
        <time>2026-09-16T09:43:15.725Z</time>
      </trkpt>
      <trkpt lat="61.5513839076267" lon="8.26667635092038">
        <ele>1424</ele>
        <time>2026-09-16T09:43:15.725Z</time>
      </trkpt>
      <trkpt lat="61.5515737142637" lon="8.26559622251991">
        <ele>1422</ele>
        <time>2026-09-16T09:43:15.725Z</time>
      </trkpt>
      <trkpt lat="61.5517816847836" lon="8.26470100586018">
        <ele>1420</ele>
        <time>2026-09-16T09:43:15.725Z</time>
      </trkpt>
      <trkpt lat="61.5519374272398" lon="8.26402491402536">
        <ele>1421</ele>
        <time>2026-09-16T09:43:15.725Z</time>
      </trkpt>
      <trkpt lat="61.5520781136482" lon="8.26340875697712">
        <ele>1419</ele>
        <time>2026-09-16T09:43:15.725Z</time>
      </trkpt>
      <trkpt lat="61.5522553838199" lon="8.26280351739431">
        <ele>1416</ele>
        <time>2026-09-16T09:43:15.725Z</time>
      </trkpt>
      <trkpt lat="61.5523174449753" lon="8.26260112234944">
        <ele>1415</ele>
        <time>2026-09-16T09:43:15.725Z</time>
      </trkpt>
      <trkpt lat="61.5523899276133" lon="8.2622453501702">
        <ele>1414</ele>
        <time>2026-09-16T09:43:15.725Z</time>
      </trkpt>
      <trkpt lat="61.5524111165652" lon="8.26212740613472">
        <ele>1414</ele>
        <time>2026-09-16T09:43:15.725Z</time>
      </trkpt>
      <trkpt lat="61.5524620630792" lon="8.26170076717407">
        <ele>1414</ele>
        <time>2026-09-16T09:43:15.725Z</time>
      </trkpt>
      <trkpt lat="61.5524868420094" lon="8.26110982858998">
        <ele>1411</ele>
        <time>2026-09-16T09:43:15.725Z</time>
      </trkpt>
      <trkpt lat="61.5525426472348" lon="8.26041768876594">
        <ele>1407</ele>
        <time>2026-09-16T09:43:15.725Z</time>
      </trkpt>
      <trkpt lat="61.5525690443026" lon="8.26022305410081">
        <ele>1407</ele>
        <time>2026-09-16T09:43:15.725Z</time>
      </trkpt>
      <trkpt lat="61.5526620087908" lon="8.25937170692891">
        <ele>1407</ele>
        <time>2026-09-16T09:43:15.725Z</time>
      </trkpt>
      <trkpt lat="61.5526681444663" lon="8.25931370449228">
        <ele>1407</ele>
        <time>2026-09-16T09:43:15.725Z</time>
      </trkpt>
      <trkpt lat="61.552735284546" lon="8.25848686572393">
        <ele>1406</ele>
        <time>2026-09-16T09:43:15.725Z</time>
      </trkpt>
      <trkpt lat="61.5528432880259" lon="8.25757556389507">
        <ele>1406</ele>
        <time>2026-09-16T09:43:15.725Z</time>
      </trkpt>
      <trkpt lat="61.5528635461276" lon="8.2574389283085">
        <ele>1406</ele>
        <time>2026-09-16T09:43:15.725Z</time>
      </trkpt>
      <trkpt lat="61.5529592735164" lon="8.25664362641908">
        <ele>1405</ele>
        <time>2026-09-16T09:43:15.725Z</time>
      </trkpt>
      <trkpt lat="61.5530691184077" lon="8.25576968616278">
        <ele>1424</ele>
        <time>2026-09-16T09:43:15.725Z</time>
      </trkpt>
      <trkpt lat="61.5530715446133" lon="8.25563693463718">
        <ele>1425</ele>
        <time>2026-09-16T09:43:15.725Z</time>
      </trkpt>
      <trkpt lat="61.5530905185747" lon="8.25529279756484">
        <ele>1425</ele>
        <time>2026-09-16T09:43:15.725Z</time>
      </trkpt>
      <trkpt lat="61.5530805365205" lon="8.2547283038302">
        <ele>1425</ele>
        <time>2026-09-16T09:43:15.725Z</time>
      </trkpt>
      <trkpt lat="61.5530278314969" lon="8.25421090170888">
        <ele>1426</ele>
        <time>2026-09-16T09:43:15.725Z</time>
      </trkpt>
      <trkpt lat="61.5529487369155" lon="8.25388814367461">
        <ele>1400</ele>
        <time>2026-09-16T09:43:15.725Z</time>
      </trkpt>
      <trkpt lat="61.5528696415925" lon="8.25356538732344">
        <ele>1402</ele>
        <time>2026-09-16T09:43:15.725Z</time>
      </trkpt>
      <trkpt lat="61.5527643696867" lon="8.25307834029361">
        <ele>1427</ele>
        <time>2026-09-16T09:43:15.725Z</time>
      </trkpt>
      <trkpt lat="61.5524739456321" lon="8.25231056101715">
        <ele>1425</ele>
        <time>2026-09-16T09:43:15.725Z</time>
      </trkpt>
      <trkpt lat="61.5522343774109" lon="8.25202280660491">
        <ele>1424</ele>
        <time>2026-09-16T09:43:15.725Z</time>
      </trkpt>
      <trkpt lat="61.5514683119823" lon="8.25111323332386">
        <ele>1410</ele>
        <time>2026-09-16T09:43:15.725Z</time>
      </trkpt>
      <trkpt lat="61.5508172074622" lon="8.25015974112514">
        <ele>1406</ele>
        <time>2026-09-16T09:43:15.725Z</time>
      </trkpt>
      <trkpt lat="61.5506742063212" lon="8.25000205505656">
        <ele>1405</ele>
        <time>2026-09-16T09:43:15.725Z</time>
      </trkpt>
      <trkpt lat="61.5505213623395" lon="8.24982762976497">
        <ele>1404</ele>
        <time>2026-09-16T09:43:15.725Z</time>
      </trkpt>
      <trkpt lat="61.5501042567221" lon="8.24904979253671">
        <ele>1401</ele>
        <time>2026-09-16T09:43:15.725Z</time>
      </trkpt>
      <trkpt lat="61.5499959861587" lon="8.24886565127641">
        <ele>1401</ele>
        <time>2026-09-16T09:43:15.725Z</time>
      </trkpt>
      <trkpt lat="61.5497213152621" lon="8.24841561846761">
        <ele>1402</ele>
        <time>2026-09-16T09:43:15.725Z</time>
      </trkpt>
      <trkpt lat="61.5494213891191" lon="8.24782000804756">
        <ele>1405</ele>
        <time>2026-09-16T09:43:15.725Z</time>
      </trkpt>
      <trkpt lat="61.5492442164554" lon="8.24751870024438">
        <ele>1405</ele>
        <time>2026-09-16T09:43:15.725Z</time>
      </trkpt>
      <trkpt lat="61.5490724407834" lon="8.246781823949">
        <ele>1403</ele>
        <time>2026-09-16T09:43:15.725Z</time>
      </trkpt>
      <trkpt lat="61.5484491323456" lon="8.24729555703164">
        <ele>1404</ele>
        <time>2026-09-16T09:43:15.725Z</time>
      </trkpt>
    </trkseg>
  </trk>
</gpx>